CERCLIS EPA ID,SITE NAME,ADDRESS,COUNTY,SITE SMSA,FEDERAL FACILITY,NPL STATUS,CORPORATELINK,RECORD OF DECISION (ROD) INFO,EPA REGIONALLINK,LATITUDE,LONGITUDE
AKSFN1002218,ADEC ALASKA DOT & PF CORDOVA LOCKE SAL,"MILE 1 CABIN LAKE ROADCORDOVA, AK  99574",VALDEZ CORDOVA,,N,Not on the NPL,No,No,No,60.49688,-145.4719
AKD980983241,ALASKA RAILROAD CORP,"1ST AVENUEANCHORAGE, AK  99501",ANCHORAGE,380,N,Not on the NPL,No,No,No,61.221335,-149.861384
AKD980988158,ARCTIC SURPLUS,"BADGER & OLD RICHARDSON HWYFAIRBANKS, AK  99707",FAIRBANKS NORTH STAR,,N,Deleted from the Final NPL,No,Yes,No,64.8122,-147.5643
AKN001002940,CHENA POWER PLANT,"1200  1ST AVEFAIRBANKS, AK  99701",FAIRBANKS NORTH STAR,,N,Not on the NPL,No,No,No,64.84689,-147.73334
AKN001003037,COIN KING LAUNDROMAT,"431 GAFFNEY ROADFAIRBANKS, AK  99701",FAIRBANKS NORTH STAR,,N,Not on the NPL,No,No,No,64.83676,-147.71527
AKD000850701,FLINT HILLLS RESOURCES ALASKA - NORTH POLE,"1100 H & H LANENORTH POLE, AK  99705",FAIRBANKS NORTH STAR,,N,Not on the NPL,No,No,No,64.737264,-147.34844
AKN001002925,FOURTH AVENUE & GAMBLE PARKING LOT,"717 EAST 4TH AVENUEANCHORAGE, AK  99501",ANCHORAGE,,N,Not on the NPL,No,No,No,61.21855,-149.87011
AK8570028649,JOINT BASE ELMENDORF-RICHARDSON,"6326 ARCTIC WARRIOR DRIVEANCHORAGE, AK  99506",ANCHORAGE,380,Y,Currently on the Final NPL,No,Yes,No,61.25416,-149.7917
AKD009252230,KETCHIKAN PULP CO,"7559 NORTH TONGASS HIGHWAYKETCHIKAN, AK  99901-9101",KETCHIKAN GATEWAY,,N,Not on the NPL,No,Yes,No,55.40811,-131.73251
AKD983076530,NORTHWAY VILLAGE STAGING AREA,"NORTHWAY AIRFIELD NAV AIDSNORTHWAY, AK  99764",SOUTHEAST FAIRBANKS,,N,Not on the NPL,No,No,No,62.95904,-141.93122
AKN001002918,POST ROAD DRUM SITE,"200 N. POST ROADANCHORAGE, AK  99510",ANCHORAGE,,N,Not on the NPL,No,No,No,61.22328,-149.85873
AK0001897602,SALT CHUCK MINE,"4 MI SW CY,  T72S R84E S17, COPPER RIVERTHORNE BAY, AK  99919",PRINCE WALES KETCHIKAN,,N,Currently on the Final NPL,No,No,No,55.626389,-132.558614
AKSFN1002184,SKAGWAY RAILROAD YARD,"231 - 2ND AVENUESKAGWAY, AK  99840",SKAGWAY HOONAH ANGOON,,N,Not on the NPL,No,No,No,59.453869,-135.318663
AKD980978787,STANDARD STEEL & METALS CO,"2400 RAILROAD AVEANCHORAGE, AK  99501",ANCHORAGE,380,Y,Deleted from the Final NPL,No,Yes,No,61.2279,-149.8324
AKN001003092,TAZLINA COPPER VALLEY SCHOOL,"OLD SCHOOL RDTAZLINA, AK  99588",VALDEZ-CORDOVA,,N,Not on the NPL,No,No,No,62.04751,-145.40306
AKD981767320,THANE MINE DUMP,"THANE ROADJUNEAU, AK  99801",JUNEAU,,N,Not on the NPL,No,No,No,58.203333,-134.408333
AKD981767387,TREADWELL MINES,"GASTINEAU CHANNEL, NE SIDEDOUGLAS, AK  99824",JUNEAU,,N,Not on the NPL,No,No,No,58.263889,-134.375833
AK6214522157,U.S. ARMY FORT RICHARDSON TRAINING RANGES,"730 QUARTERMASTER RDJBER, AK  99505-6500",ANCHORAGE,380,Y,Currently on the Final NPL,No,Yes,No,61.25833,-149.7
AK8690360492,U.S. COAST GUARD BSU KETCHIKAN,"1300 STEDMAN STREETKETCHIKAN, AK  99901-6661",KETCHIKAN GATEWAY,,Y,Not on the NPL,No,No,No,55.3338,-131.62543
AKN001002912,UNIVAR USA INC,"590 EAST 100TH STREETANCHORAGE, AK  99515-2603",ANCHORAGE,,N,Not on the NPL,No,No,No,61.129407,-149.871824
AK8214522155,US ARMY - FORT GREELY,"RICHARDSON HIGHWAYFORT GREELY, AK  99737",SOUTHEAST FAIRBANKS,380,Y,Not on the NPL,No,No,No,63.98791,-145.72487
AK6210022426,US ARMY FORT WAINWRIGHT CANTONMENT,"1060 GAFFNEY ROAD #4500FORT WAINWRIGHT, AK  99703-5002",FAIRBANKS NORTH STAR,,Y,Currently on the Final NPL,No,Yes,No,64.823,-147.6106
AK5570028618,USAF - BARTER ISLAND LRRS,"70??08???02???N 143??34???55???WKAKTOVIK, AK  99747",NORTH SLOPE,,Y,Not on the NPL,No,No,No,70.1339,-143.57704
AK9570028705,USAF - EARECKSON AIR STATION,"UNNAMED STREETSHEMYA ISLAND, AK  99666",ALEUTIANS WEST,,Y,Not on the NPL,No,No,No,52.723713,174.106822
AK1570028646,USAF - EIELSON AFB,"2310 CENTRAL AVE, SUITE 100EIELSON AFB, AK  99702",FAIRBANKS NORTH STAR,,Y,Currently on the Final NPL,No,Yes,No,64.67145,-147.0492
AK9570028655,USAF - GALENA AIR FORCE STATION,"AIRPORT ROADGALENA, AK  99741",YUKON-KOYUKUK,,Y,Not on the NPL,No,No,No,64.741989,-156.95358
AK3570028669,USAF - KING SALMON,"AIR FORCE BASE DRIVEKING SALMON, AK  99613",BRISTOL BAY,,Y,Not on the NPL,No,No,No,58.69301,-156.67073
AKN001002950,USDOI BLM JOHN RISHEL MINERLA INFORMATION CENTER,"100 SAVIKKODOUGLAS, AK  99824-5500",JUNEAU,,Y,Not on the NPL,No,No,No,58.27423,-134.38715
AKD004904215,USEPA ALASKA BATTERY ENTERPRISES CLEANUP,"157 OLD RICHARDSON HIGHWAYFAIRBANKS, AK  99701",FAIRBANKS NORTH STAR,,N,Deleted from the Final NPL,No,Yes,No,64.8203,-147.7038
AK4170024323,USNAVY CARETAKER SITE OFFICE ADAK,"ALL OF MILITARY ON ADAK ISLANDADAK, AK  995461221",ALEUTIANS WEST,,Y,Currently on the Final NPL,No,Yes,No,51.8775,-176.6525
ALN000410200,11TH AVENUE MERCURY SPILL,"11TH AVENUEBIRMINGHAM, AL",JEFFERSON,,N,Not on the NPL,No,No,No,33.45144,-86.94184
ALN000410975,41ST AVE N. WIRE FLUFF PILE,"41ST AVE N.(NEAR INTERSECTION OF 37TH STBIRMINGHAM, AL  35207",JEFFERSON,,N,Not on the NPL,No,No,No,33.56468,-86.81951
ALD003398377,A & B FOUNDRY INC,"2631 SHUTTLESWORTH DRIVEBIRMINGHAM, AL  35234-1342",JEFFERSON,,N,Not on the NPL,No,No,No,33.548532,-86.808016
ALN000407812,ACE DRUM SITE,"1801 REDDY STREETMOBILE, AL  36610",MOBILE,,N,Not on the NPL,No,No,No,30.72353,-88.06661
ALD982097669,ACME PACKAGING  LEEDS FACILITY,"1230 PARKWAY DRIVELEEDS, AL  35094",JEFFERSON,1000,N,Not on the NPL,No,No,No,33.5413,-86.53368
ALSFN0406899,ADVANCED DISPOSAL SERVICES STAR RIDGE LA,"3301 ACMAR ROADMOODY, AL  35004-2737",ST CLAIR,,N,Not on the NPL,No,No,No,33.607092,-86.507602
ALSFN0406863,"ADVANCED THERMAL COATINGS, INC.","428 S. 4TH ST.FLORALA, AL  36442-3821",COVINGTON,,N,Not on the NPL,No,No,No,30.999351,-86.331818
ALD008161176,AKZO NOBEL FUNCTIONAL CHEMICALS,"13440 HWY 43 NAXIS, AL  36505-4313",MOBILE,5160,N,Currently on the Final NPL,No,Yes,No,30.96943,-88.0175
ALSFN0407148,ALABAMA PIPE AND FOUNDRY,"WEST 20TH ST. & MCCOY AVEANNISTON, AL  36201",CALHOUN,,N,Not on the NPL,No,No,No,33.67031,-85.83522
ALSFN0406862,ALABAMA PLATING CO INC,"HIGHWAY 231 NORTHVINCENT, AL  35178",SHELBY,,N,Not on the NPL,No,No,No,33.39972,-86.405
ALD083742858,ALABAMA POWER CO EC GASTON STEAM PLANT,"31972 HIGHWAY 25WILSONVILLE, AL  35186",SHELBY,1000,N,Not on the NPL,No,No,No,33.243803,-86.459093
ALD000615542,ALABAMA POWER COMPANY PLANT GADSDEN,"1000 GOODYEAR AVENUEGADSDEN, AL  35903-1109",ETOWAH,,N,Not on the NPL,No,No,No,34.010515,-85.970092
ALD094476793,ALLWORTH LLC,"500 MEDCO RD.BIRMINGHAM, AL  35217",JEFFERSON,1000,N,Not on the NPL,No,No,No,33.59452,-86.77132
ALD981868466,AMERICAN BRASS INC,"HIGHWAY 134 WESTHEADLAND, AL  36345",HENRY,,N,Currently on the Final NPL,No,Yes,No,31.325,-85.40416
ALD087638755,AMERICAN COLOR GRAPHICS SYLACAUGA,"1215 FAYETTEVILLE ROADSYLACAUGA, AL  35150-2305",TALLADEGA,,N,Not on the NPL,No,No,No,33.14647,-86.40643
ALD061143350,ANCHOR METALS,"1008 GLEN ADDIE AVEANNISTON, AL  36201-4592",CALHOUN,450,N,Not on the NPL,No,No,No,33.657169,-85.836091
ALN000407553,ANDREW KNIT,"1416 SKYLAND BOULEVARD EASTTUSCALOOSA, AL  35405",TUSCALOOSA,,N,Not on the NPL,No,No,No,33.168424,-87.519825
ALSFN0406917,ANGELICA HEALTHCARE SERVICES,"1038 ADAMS AVEMONTGOMERY, AL  36104",MONTGOMERY,,N,Not on the NPL,No,No,No,32.37558,-86.29419
ALN000409875,ANNISTON CHEMICAL,"2100 WEST 14TH STREETANNISTON, AL  36201-3406",CALHOUN,,N,Not on the NPL,No,No,No,33.66227,-85.85698
ALSFN0407149,ANNISTON CONCRETE,"600 WEST 21ST STREETANNISTON, AL  36201-3080",CALHOUN,,N,Not on the NPL,No,No,No,33.67138,-85.83705
ALSFN0407150,ANNISTON SCRAP,"10TH ST. & GURNEE AVE.ANNISTON, AL  36201",CALHOUN,,N,Not on the NPL,No,No,No,33.65707,-85.83134
ALSFN0407057,APAC,"5356 MARTIN LUTHER KING BLVD.TUSCALOOSA, AL  35487",TUSCALOOSA,,N,Not on the NPL,No,No,No,33.161702,-87.589165
ALD000608018,ARAB PLATING CO,"ROUTE 1 BOX 177ARAB, AL  35016",MARSHALL,3440,N,Not on the NPL,No,No,No,34.319444,-86.433611
ALD004000998,ARORA TECHNOLOGIES INC,"2615 MEMORIAL PARKWAY SWHUNTSVILLE, AL  35801-5629",MADISON,3440,N,Not on the NPL,No,No,No,34.710193,-86.590231
AL0001695659,B AND B MANUFACTURING,"401 SOUTH CAROLINA STREETMOBILE, AL  36603-2037",MOBILE,,N,Not on the NPL,No,No,No,30.66905,-88.0468
ALN000407707,BAKER STREET DRUMS,"BAKER AND YUND STREETMOBILE, AL  36602",MOBILE,,N,Not on the NPL,No,No,No,30.66681,-88.04809
ALN970925000,BAMA OIL,"2012 8TH AVENUEBESSEMER, AL  35020",JEFFERSON,,N,Not on the NPL,No,No,No,33.407161,-86.95854
ALD001221902,BASF CORP,"1379 CIBA RDMC INTOSH, AL  365530113",WASHINGTON,,N,Currently on the Final NPL,No,Yes,No,31.279,-87.9955
ALD058639113,"BAUMANN COATINGS, INC.","2095 4TH AVENUE SOUTHWESTBESSEMER, AL  35022-5309",JEFFERSON,1000,N,Not on the NPL,No,No,No,33.3395,-87.0041
AL0001411628,BESSEMER ADAMS SITE,"1447 BERKLY STREETBESSEMER, AL  35020",JEFFERSON,1000,N,Not on the NPL,No,No,No,33.398093,-86.948264
ALD983181983,BESSEMER DRUM SITE,"817 20TH STREETBESSEMER, AL  35020",JEFFERSON,1000,N,Not on the NPL,No,No,No,33.407202,-86.958812
ALN000410067,BESSEMER PETROLEUM INC,"2701 NORTH 8TH AVENUEBESSEMER, AL  35020-3510",JEFFERSON,,N,Not on the NPL,No,No,No,33.41533,-86.95193
ALR000037929,BIOLOGICAL PROCESSORS OF ALABAMA,"611 FINLEY ISLAND ROADDECATUR, AL  35601-7568",MORGAN,,N,Not on the NPL,No,No,No,34.632373,-87.05189
ALD009840653,BLUE JOHN CO,"2800 BOB WALLACE AVENUEHUNTSVILLE, AL  35805-4154",MADISON,,N,Not on the NPL,No,No,No,34.71139,-86.60286
ALSFN0407036,BLYTHE DRUG LAB,"2105 SAND ROCK AVENUESAND ROCK, AL  35983-4329",CHEROKEE,,N,Not on the NPL,No,No,No,34.242552,-85.767734
ALN000407852,BP AMOCO CHEMICALS,"1400 FINLEY ISLAND ROADDECATUR, AL  35601",MORGAN,,N,Not on the NPL,No,No,No,34.639926,-87.058342
ALN000410926,BRANTON RD MERCURY SPILL,"321 BRANTON RDTAYLOR, AL  36301",HOUSTON,,N,Not on the NPL,No,No,No,31.139575,-85.4644
ALN000407336,BROCK MOUNTAIN DRUMS,"228 DEMPSEY LANEOXFORD, AL  36203-8763",CALHOUN,,N,Not on the NPL,No,No,No,33.56775,-85.836069
AL0002368488,BUCHANAN LUMBER,"455 FLACK ROADMONTGOMERY, AL  36108",MONTGOMERY,,N,Not on the NPL,No,No,No,32.367838,-86.35565
ALD063680367,BWD AUTOMOTIVE,"4555 WATER AVENUESELMA, AL  36703-8707",DALLAS,,N,Not on the NPL,No,No,No,32.41568,-86.97851
ALD004029633,CALDWELL FOUNDRY,"8616 DUNNAVANT ROADLEEDS, AL  35094",JEFFERSON,1000,N,Not on the NPL,No,No,No,33.539871,-86.534913
ALN000410912,CALHOUN COUNTY TORNADO DRUM RESPONSE,"2440 HARTS FERRY ROADOHATCHEE, AL  36271",CALHOUN,,N,Not on the NPL,No,No,No,33.78468,-86.008962
ALN000409857,CAMMCO INC,"7805 US HIGHWAY 431HEFLIN, AL  36264",CLEBURNE,,N,Not on the NPL,No,No,No,33.531667,-85.640556
AL0001058056,CAPITOL CITY PLUME,"MADISON AVENUEMONTGOMERY, AL  36109",MONTGOMERY,5240,N,Proposed for NPL,No,No,No,32.382,-86.306
ALSFN0406945,CENTER STAR MFG. SITE,"207 HAMRIC DRIVEOXFORD, AL  36203",CALHOUN,,N,Not on the NPL,No,No,No,33.607658,-85.832911
ALSFN0406981,CENTRAL ALABAMA OIL & POLLUTION CONTROL,"148 COUNTY ROAD 523VERBENA, AL  36091",CHILTON,,N,Not on the NPL,No,No,No,32.78278,-86.461365
ALD000608075,CHAPMAN CHEMICAL COMPANY,"ONE RANGE STREETSELMA, AL  36703-3100",DALLAS,,N,Not on the NPL,No,No,No,32.409644,-87.010958
ALD981754328,CHEM FOUR LTD,"306 INDUSTRIAL PARK DRIVE NORTHDEMOPOLIS, AL  36732",MARENGO,,N,Not on the NPL,No,No,No,32.477376,-87.833324
ALD063687016,CLEAN COAL RESEARCH CENTER SOUTHERN COMPANY SERVICES INC.,"HIGHWAY 25 NORTHWILSONVILLE, AL  35186",SHELBY,1000,N,Not on the NPL,No,No,No,33.243401,-86.469803
ALN000410928,COLDWATER RD DUMPING,"390 COLDWATER RDANNISTON, AL  36201",CALHOUN,,N,Not on the NPL,No,No,No,33.590058,-85.925219
ALN000407310,CONTINENTAL CARBON CO PHENIX CITY,"1500 EAST STATE DOCKS ROADPHENIX CITY, AL  36869-7680",RUSSELL,,N,Not on the NPL,No,No,No,32.43372,-84.97257
ALN000411023,CORDOVA MERCURY SPILL,"189 DATE HILL ROADCORDOVA, AL  35508",WALKER,,N,Not on the NPL,No,No,No,33.73412,-87.21103
ALSFN0406978,CRAFT PLATING CO INC,"100 UTILITY AVENUEATTALLA, AL  35954-9212",ETOWAH,,N,Not on the NPL,No,No,No,33.99146,-86.12029
ALN000410956,CREEL EXCAVATION,"7800 COUNTY FARM ROADIRVINGTON, AL  36544",MOBILE,,N,Not on the NPL,No,No,No,30.53083,-88.22223
ALD982124315,CSX TRANSPORTATION-MECHANICAL DEPT,"815 NORTH COURT STREETMONTGOMERY, AL  36104-2303",MONTGOMERY,,N,Not on the NPL,No,No,No,32.388464,-86.309177
ALD000652800,CULPEPPER WOOD PRESERVERS,"HIGH WAY 172 WESTHACKLEBURG, AL  35564",MARION,,N,Not on the NPL,No,No,No,34.27732,-87.828642
ALD003383254,CUMMINGS SIGNS INC,"10 INDUSTRIAL PKWYFORT DEPOSIT, AL  36032-4042",LOWNDES,,N,Not on the NPL,No,No,No,31.986679,-86.568989
ALD095696308,DEEPSOUTH PLATING & SERVICE CO.,"914 INDUSTRIAL PARK ROADPRATTVILLE, AL  36067-4885",AUTAUGA,,N,Not on the NPL,No,No,No,32.429083,-86.463624
ALSFN0407153,DEFENSE RESEARCH,"1205 FRONT STREETANNISTON, AL  36201-8262",CALHOUN,,N,Not on the NPL,No,No,No,33.63312,-85.83071
AL0000972877,DERIDDER CHEMICAL CO,"3220 WEST MAIN STWHISTER, AL  36612",MOBILE,5160,N,Not on the NPL,No,No,No,30.754055,-88.10872
AL0002368595,DIRECT RAIL HEAD/MOORE LUMBER,"3101 27TH AVEBIRMINGHAM, AL  35207-5101",JEFFERSON,,N,Not on the NPL,No,No,No,33.54967,-86.8048
ALD983167131,DON BRIDGES PROPERTY,"1969 CHERRY TREE ROADGURLEY, AL  35748-9318",MADISON,3440,N,Not on the NPL,No,No,No,34.61833,-86.38716
ALSFN0407038,EAST GADSDEN DEVELOPMENT PROJECT,"E. BROAD STREET & HOOD AVENUEGADSDEN, AL  35903",ETOWAH,,N,Not on the NPL,No,No,No,34.00843,-85.9939
ALD055158992,ELECTRICAL SPECIALTY PRODUCTS COMPANY,"HIGHWAY 25 SOUTHMONTEVALLO, AL  35115",SHELBY,1000,N,Not on the NPL,No,No,No,33.1385,-86.8946
AL0001575026,ESQUIRE CLEANERS,"BROAD STREETGADSDEN, AL  35901",ETOWAH,2880,N,Not on the NPL,No,No,No,34.01232,-86.00204
AL0000059147,ETOWAH COUNTY ESWDA LANDFILL,"NOBLE HILL ROADGADSDEN, AL  35901",ETOWAH,2880,N,Not on the NPL,No,No,No,34.071944,-86.107222
ALN000410848,FIVE MILE CREEK,"FIVE MILE CREEK WATERSHEDBIRMINGHAM, AL  35207",JEFFERSON,,N,Not on the NPL,No,No,No,33.61414,-86.68947
ALD983166588,FLINT RIVER BRIDGE DRUM,"HIGHWAY 72GURLEY, AL  35748",MADISON,3440,N,Not on the NPL,No,No,No,34.69377,-86.35953
ALN000410051,FLORENCE  SANITARY LANDFILL,"SAVANNAH HWY & WATERLOO RD.FLORENCE, AL  35630",LAUDERDALE,,N,Not on the NPL,No,No,No,34.8295,-87.6547
AL0001923341,FLORENCE GAS WORKS,"WATER STREETFLORENCE, AL  35630",LAUDERDALE,,N,Not on the NPL,No,No,No,34.796959,-87.65957
ALN000407676,"FORD, BOBBY-DRUM SITE","35 BAY STREET EASTSYLACAUGA, AL  35150",TALLADEGA,,N,Not on the NPL,No,No,No,33.15764,-86.251414
ALSFN0406977,FORMER DOT DISTRICT OFFICE,"COURTLAND AVE. & PARK BLVD.RUSSELLVILLE, AL  35653",FRANKLIN,,N,Not on the NPL,No,No,No,34.50557,-87.71769
ALD004017497,FORMER FORD SHEFFIELD PLANT,"2019 FORD RDSHEFFIELD, AL  35660",COLBERT,2650,N,Not on the NPL,No,No,No,34.762319,-87.604011
AL0001197409,FORMER HANSEL C. HODGES PROPERTY,"17989 HANSEL HODGES ROADELBERTA, AL  36530-3216",BALDWIN,5160,N,Not on the NPL,No,No,No,30.48722,-87.52683
ALD983185810,FOUNDRY OF THE SHOALS INC,"201 COMMERCE STREETFLORENCE, AL  35630-4984",LAUDERDALE,,N,Not on the NPL,No,No,No,34.80268,-87.6553
ALD045632312,FULLCO LUMBER COMPANY INCORPORATED,"HIGHWAY 5 NORTHHALEYVILLE, AL  35565",WINSTON,,N,Not on the NPL,No,No,No,34.234821,-87.638914
AL0000132662,FUSSY HILL DRUM DUMP,"461 FUSSY HILL ROADNEW MARKET, AL  35761-8734",MADISON,3440,N,Not on the NPL,No,No,No,34.84397,-86.42405
AL0001580430,G&W TIRES,"1204 21ST ST.HALEYVILLE, AL  35565",WINSTON,,N,Not on the NPL,No,No,No,34.227629,-87.619839
ALN000407343,GADSDEN MANUFACTURING GAS PLANT,"624 BROAD STREETGADSDEN, AL  35901-3722",ETOWAH,,N,Not on the NPL,No,No,No,34.01458,-86.006761
ALD095697058,GAMXX ENERGY INC,"HAMILTON BOULEVARDTHEODORE, AL  36582",MOBILE,,N,Not on the NPL,No,No,No,30.831111,-88.1275
ALN000410676,GAO 217 - ROBERT SMITH COMPANY,"925 NORTH 28TH STREETBIRMINGHAM, AL  35203",JEFFERSON,,N,Not on the NPL,No,No,No,33.528903,-86.800955
ALD037483369,GERALD METALS INCORPORATED,"155 COUNTY HIGHWAY 62BEAR CREEK, AL  35543",MARION,,N,Not on the NPL,No,No,No,34.264992,-87.700074
AL0001923374,GLENCOE BATTERY SHOP,"219 WEST MAIN STREETGLENCOE, AL  35905",ETOWAH,,N,Not on the NPL,No,No,No,33.955398,-85.933433
ALN000411018,GLENVALE ROAD MERCURY SPILL,"375 GLENVALE ROADALEXANDRIA, AL  63250",CALHOUN,,N,Not on the NPL,No,No,No,33.75911,-85.85138
ALN000410411,GOLDEN PEANUT NAOH SPILL,"805 E. NEWTON STREETDOTHAN, AL  36303-4759",HOUSTON,,N,Not on the NPL,No,No,No,31.228859,-85.385108
ALN000410392,GRACE CONSTRUCTION PRODUCTS,"2601 COMMERCE BLVD.IRONDALE, AL  35210",JEFFERSON,,N,Not on the NPL,No,No,No,33.54506,-86.69513
AL0001909829,"GRADCO, INC","7341 CAHABA VALLEY RD, HWY 119BIRMINGHAM, AL  35242-6302",SHELBY,,N,Not on the NPL,No,No,No,33.188385,-86.823617
ALD008214090,GRAND BUMPER & WHEEL INC,"1654 NAVCO RD.MOBILE, AL  366052697",MOBILE,5160,N,Not on the NPL,No,No,No,30.633492,-88.105053
AL0001909852,GREENVILLE FERTILIZER,"100 LONG STREETGREENVILLE, AL  36037-2437",BUTLER,,N,Not on the NPL,No,No,No,31.82473,-86.63683
ALN000409758,GRIST MILL HERBICIDE,"4845 GRIST MILL ROADALPINE, AL  35014-5775",TALLADEGA,,N,Not on the NPL,No,No,No,33.344181,-86.258753
ALSFN0406887,H&G BATTERY SITE,"3701 COMMERCE AVENUEFAIRFIELD, AL  35064-1439",JEFFERSON,,N,Not on the NPL,No,No,No,33.49767,-86.91086
ALD094472651,HAGER COMPANIES,"310 HAMRIC DRIVEOXFORD, AL  36203-2357",CALHOUN,450,N,Not on the NPL,No,No,No,33.607909,-85.831861
ALN000410703,HARPERSVILLE DERAILMENT,"DEAD HOLLOW RDHARPERSVILLE, AL  35078",SHELBY,,N,Not on the NPL,No,No,No,33.31518,-86.45402
ALD004014973,HARSCO METALS PLANT 1,"174 SOUTH 26TH STREETGADSDEN, AL  35904-1935",ETOWAH,2880,N,Not on the NPL,No,No,No,34.018382,-86.043601
ALN000407341,HB & G,"1015 BRUNDIDGE BOULEVARDTROY, AL  36081-3109",PIKE,,N,Not on the NPL,No,No,No,31.795209,-85.967664
ALN000410910,HELENA MIDDLE SCHOOL,"1299 HILLSBORO PARKWAYHELENA, AL  35080-6825",SHELBY COUNTY,,N,Not on the NPL,No,No,No,33.27753,-86.87098
ALD980842637,HICKORY STREET LANDFILL,"JCT HICKORY & CHINQUAPIN STMOBILE, AL  36603",MOBILE,5160,N,Not on the NPL,No,No,No,30.703765,-88.060988
ALD004027579,HIRSCHFELD INDUSTRIES LP,"1085 PARKER STREETMONTGOMERY, AL  36108-2311",MONTGOMERY,,N,Not on the NPL,No,No,No,32.35454,-86.3621
ALN000410383,HOKES BLUFF MERCURY,"3173 AARON WAYHOKES BLUFF, AL  35903",ETOWAH,,N,Not on the NPL,No,No,No,34.007582,-85.909916
ALN000407387,HUEYTOWN/PATEL DRUMS,"3290 ALLISON-BONNETT MEMORIAL DRIVEHUEYTOWN, AL  35023-1425",JEFFERSON,,N,Not on the NPL,No,No,No,33.45376,-87.00956
AL0002304202,IDS WAREHOUSE INC,"3500 1ST AVE S.BIRMINGHAM, AL  35222-1830",JEFFERSON,,N,Not on the NPL,No,No,No,33.52098,-86.78473
ALN000407542,INEOS PHENOL,"7770 RANGELINE ROADTHEODORE, AL  36582-5212",MOBILE,,N,Not on the NPL,No,No,No,30.529655,-88.12349
ALD041906173,INTERSTATE LEAD COMPANY INCORPORATED,"1247 BORDEN AVENUELEEDS, AL  35094",JEFFERSON,1000,N,Currently on the Final NPL,No,Yes,No,33.68888,-86.63333
ALN000410506,INVERNESS LANDING MERCURY SPILL,"3113 INVERNESS LANDINGBIRMINGHAM, AL  35242-3877",SHELBY,,N,Not on the NPL,No,No,No,33.410648,-86.702737
ALD982142960,ISBELL BATTERY COMPANY,"2469 WOLF CREEK ROAD SOUTHPELL CITY, AL  35128-4521",SAINT CLAIR,,N,Not on the NPL,No,No,No,33.52276,-86.40711
ALD059903641,J & A ENTERPRISES,"1003 ORCHARD STHUNTSVILLE, AL  35801-5497",MADISON,3440,N,Not on the NPL,No,No,No,34.74571,-86.59274
ALSFN0407077,JAFFE WHOLESALE IRON AND METAL COMPANY,"2850 5TH AVENUE NORTHBIRMINGHAM, AL  35203",JEFFERSON,,N,Not on the NPL,No,No,No,33.513712,-86.789741
ALD980845341,JBA MANUFACTURING,"129 PARKWAY DRLEEDS, AL  35094",JEFFERSON,1000,N,Not on the NPL,No,No,No,33.62537,-86.60374
ALD983179896,JOHN LAW HOLLOW DRUMS,"9TH STREETGRANT, AL  35747",MARSHALL,3440,N,Not on the NPL,No,No,No,34.51989,-86.25004
ALSFN0406980,JOHNSON DRUM SITE,"369 JOHNSON ROADFLORENCE, AL  35630",LAUDERDALE,,N,Not on the NPL,No,No,No,34.900688,-87.573807
ALD021254503,"JONES, GENE T TIRE & BATTERY DISTRIBUTOR INCORPORATED","820 AVENUE EBIRMINGHAM, AL  35214",JEFFERSON,1000,N,Not on the NPL,No,No,No,33.524308,-86.887788
AL0001401322,"K&M PROPERTIES, LLC","925 12TH STREET SWBIRMINGHAM, AL  35211-1908",JEFFERSON,1000,N,Not on the NPL,No,No,No,33.49128,-86.84937
AL0001206564,KEY BATTERY SHOP,"1109 FINLEY AVENUE NORTHBIRMINGHAM, AL  35204-1151",JEFFERSON,1000,N,Not on the NPL,No,No,No,33.53834,-86.83514
ALSFN0407178,"KING CHURCH FURNITURE, INC.","3125 OXMOOR INDUSTRIAL BLVD.DOTHAN, AL  36303",HOUSTON,,N,Not on the NPL,No,No,No,31.280436,-85.451643
ALD983167669,"KMG-BERNUTH, INC.","2901 3RD STREETTUSCALOOSA, AL  35401-1018",TUSCALOOSA,8600,N,Not on the NPL,No,No,No,33.20956,-87.57652
ALN000407501,LAMAR COUNTY DRUM DUMP,"HWY 96 AND ATKINS ROADMILLPORT, AL  35576",LAMAR,,N,Not on the NPL,No,No,No,33.55755,-88.20372
ALD004034138,LAWTER INTERNATIONAL INC,"12982 CRACKER ROADMOUNDVILLE, AL  35474",HALE,,N,Not on the NPL,No,No,No,33.009722,-87.625278
ALSFN0407158,LEE BROTHERS BRASS FOUNDRY,"16TH ST. & WALNUT AVE.ANNISTON, AL  36201",CALHOUN,,N,Not on the NPL,No,No,No,33.665,-85.83416
ALN000407374,LEEDS LANDFILL,"REX LAKE RD. & ZEIGLER  RD.LEEDS, AL  35094",JEFFERSON,,N,Not on the NPL,No,No,No,33.51882,-86.605
ALD050983394,"LILLY INDUSTRIES, INC.","2305 INDUSTRIAL RDDOTHAN, AL  36303",HOUSTON,,N,Not on the NPL,No,No,No,31.25705,-85.40153
ALR000031880,LINCOLN METALS CORPORATION,"248 FOUNDRY RD.LINCOLN, AL  35096-3660",TALLADEGA,,N,Not on the NPL,No,No,No,33.612603,-86.099972
ALD004018354,M & H VALVE CO,"605 WEST 23RD STREETANNISTON, AL  36201-3075",CALHOUN,450,N,Not on the NPL,No,No,No,33.674203,-85.838265
ALD009305608,MARTIN MARIETTA SERVICES INC,"110 WYNN DRIVEHUNTSVILLE, AL  35805-1957",MADISON,2880,N,Not on the NPL,No,No,No,34.72154,-86.65549
ALSFN0407177,MAYCO INDUSTRIES INC,"18 W. OXMOOR RD.BIRMINGHAM, AL  35209",JEFFERSON,,N,Not on the NPL,No,No,No,33.45774,-86.84012
AL0001923366,MCCOMBS DUMP,"WOMACK ROADBIRMINGHAM, AL  35210",JEFFERSON,,N,Not on the NPL,No,No,No,33.56161,-86.6192
ALN000409805,MCCULLOUGH OIL SITE,"145 COUNTY ROAD 523VERBENA, AL  36091",CHILTON,,N,Not on the NPL,No,No,No,32.781347,-86.462328
ALSFN0407159,MCT ANNISTON INC.,"2412 EULATON ROADANNISTON, AL  36201-4265",CALHOUN,,N,Not on the NPL,No,No,No,33.655947,-85.861273
ALN000407418,MED WASTE OF ALABAMA,"807 MARKET STREET N.E.DECATUR, AL  35601-2445",MORGAN,,N,Not on the NPL,No,No,No,34.60904,-86.9746
AL0000907360,METAL MANAGEMENT ALABAMA INC,"2020 VANDERBILT ROADBIRMINGHAM, AL  35234-1519",JEFFERSON,1000,N,Not on the NPL,No,No,No,33.54943,-86.78837
ALD004009825,METSO MINERALS INDUSTRIES INC,"900 38TH STREET NORTHBIRMINGHAM, AL  35222-1048",JEFFERSON,,N,Not on the NPL,No,No,No,33.5375,-86.78278
ALN000407561,"MID-STATE ELECTRIC MOTOR SERVICE, INC","1801 MARKET STREETOPELIKA, AL  36801-2654",LEE,,N,Not on the NPL,No,No,No,32.67022,-85.36718
AL0001923358,MILLER'S FOUNDRY,"AMBER HILLS ROADBIRMINGHAM, AL  35210",JEFFERSON,,N,Not on the NPL,No,No,No,33.56972,-86.62335
ALN000407790,MOBILE AREA WATER & SEWER SYSTEM WHSE,"207 N CATHERINE STMOBILE, AL  36604",MOBILE,,N,Not on the NPL,No,No,No,30.69611,-88.07277
ALD000772137,MOBILE FACILITY,"1101 EZRA TRICE BLVDMOBILE, AL  36603",MOBILE,,N,Not on the NPL,No,No,No,30.669467,-88.042656
ALD980708036,MOBILE TANK WASH INC,"1051 LEDYARD STREETMOBILE, AL  36603-1907",MOBILE,,N,Not on the NPL,No,No,No,30.666425,-88.049497
ALD067102301,MONARCH CERAMIC TILE INC,"834 RICKWOOD ROADFLORENCE, AL  35630-1368",LAUDERDALE,2650,N,Removed from Proposed NPL,No,No,No,34.826431,-87.670351
ALD031618069,MOWBRAY ENGINEERING CO.,"JCT OF 2ND & BEELAND STSGREENVILLE, AL  36037",BUTLER,,N,Deleted from the Final NPL,No,Yes,No,31.83166,-86.61305
AL0002368447,MUD LAKES,"HWY 98 BLAKELY ISLANDMOBILE, AL  36633",MOBILE,,N,Not on the NPL,No,No,No,30.718333,-88.034167
ALD050981687,NACCO MATERIALS HANDLING GROUP INC. SULLIGENT FACILITY,"7711 HIGHWAY 278 EASTSULLIGENT, AL  35586-6151",LAMAR,,N,Not on the NPL,No,No,No,33.900107,-88.150034
AL1800013863,NASA MARSHALL SPACE FLIGHT CENTER,"MARSHALL SPACE FLIGHT CENTERHUNTSVILLE, AL  35812",MADISON,3440,Y,Site is Part of NPL Site,No,Yes,No,34.631111,-86.669444
ALD931524044,NATIONAL TIRE & SLVG,"2900 21ST AVE NOBIRMINGHAM, AL  35234-1334",JEFFERSON,,N,Not on the NPL,No,No,No,33.5434,-86.80797
AL3170024639,NAVAL STATION MOBILE,"7411 LAKE ROADMOBILE, AL  36605",MOBILE,5160,Y,Not on the NPL,No,No,No,30.535913,-88.092668
ALSFN0407176,NEWTON DOSTER DUMPSITE-KING CHURCH FURN,"DALE COUNTY ROAD 9NEWTON, AL  36352",DALE,,N,Not on the NPL,No,No,No,31.31199,-85.58641
ALN000410920,NORFOLK SOUTHERN DECATUR ALABAMA HF RELEASE,"1650 FIFTH STREET NWDECATUR, AL  35603",MORGAN,,N,Not on the NPL,No,No,No,34.61303,-87.010422
ALD008150617,NORTH MOBILE CO INDUSTRIAL PARK,"12740 US HIGHWAY 43 NORTHAXIS, AL  36505",MOBILE,5160,N,Not on the NPL,No,No,No,30.958889,-88.021111
ALN000410199,ODESSA STREET DRUM SITE,"1401 ODESSA DRIVEGADSDEN, AL  35903",ETOWAH,,N,Not on the NPL,No,No,No,33.99565,-85.96229
ALSFN0406861,OGLETREE PLAZA DRY CLEANERS,"6 NORTH INDUSTRY AVE.SYLACAUGA, AL  35150-2446",TALLADEGA,,N,Not on the NPL,No,No,No,33.167403,-86.253849
AL0001105477,OLD MONTGOMERY PLATING WORKS SITE,"1419 HIGHLAND AVE.MONTGOMERY, AL  36104-4721",MONTGOMERY,5240,N,Not on the NPL,No,No,No,32.37211,-86.28988
AL0001920578,OLD SPEIGNER LANDFILL,"COUNTY ROAD 23ELMORE, AL  36025",ELMORE,,N,Not on the NPL,No,No,No,32.72508,-86.41318
ALD008188708,OLIN CORP,"1638 INDUSTRIAL ROADMCINTOSH, AL  36553-6609",WASHINGTON,,N,Currently on the Final NPL,No,Yes,No,31.26388,-87.99445
ALN000407753,ORPHANED LITHIUM,"1318 PUTNAM LANEHUNTSVILLE, AL  35816-2220",MADISON,,N,Not on the NPL,No,No,No,34.73935,-86.62991
ALD981469992,OWENS PLATING,"133 ROY LONG ROADATHENS, AL  35611",LIMESTONE,,N,Not on the NPL,No,No,No,34.760597,-86.970766
ALN000409999,OWENS PLATING CO,"1440 SUTTON BRIDGE RD.RAINBOW CITY, AL  359068701",ETOWAH,,N,Not on the NPL,No,No,No,33.987698,-86.045573
ALN000410982,PELL CITY HG SPILL,"2413 COMER AVENUEPELL CITY, AL  35125",ST. CLAIR,,N,Not on the NPL,No,No,No,33.602887,-86.269408
ALD980728703,PERDIDO GROUND WATER CONTAMINATION,"COUNTY RD 47 SPERDIDO, AL  36562",BALDWIN,5160,N,Currently on the Final NPL,No,Yes,No,31.0125,-87.625
ALD097745756,PERFORMANCE ADVANTAGE INC,"PO BOX 157, ROUTE 1 HIGHWAY 29WEOGUFKA, AL  35183-0157",COOSA,,N,Not on the NPL,No,No,No,33.018333,-86.313333
ALN000410350,PETERBILT OF MONTGOMERY,"531 AIRBASE BOULEVARDMONTGOMERY, AL  36108-2401",MONTGOMERY,,N,Not on the NPL,No,No,No,32.36322,-86.34835
ALSFN0406974,PHILLIES CIGAR CO.,"309 MORGAN ST.SELMA, AL  36702",DALLAS,,N,Not on the NPL,No,No,No,32.41799,-87.04144
ALN000410959,PINSON MERCURY RELEASE,"7350 OLD DIXIANA ROADPINSON, AL  35126",JEFFERSON,,N,Not on the NPL,No,No,No,33.71832,-86.69062
ALSFN0407161,POLLOCK COLLINS OIL,"605 GLENN ADDIEANNISTON, AL  36201-5582",CALHOUN,,N,Not on the NPL,No,No,No,33.651985,-85.8361
ALD067140061,"PSC METALS,INC.(SHUT DN)","3353 27TH AVENUE NORTHBIRMINGHAM, AL  35207-5105",JEFFERSON,,N,Not on the NPL,No,No,No,33.54954,-86.79919
ALN980824000,PUCKETT SMELTER,"3329 MOUNTAINBORO ROADMOUNTAINBORO, AL  35956-3107",ETOWAH,,N,Not on the NPL,No,No,No,34.151795,-86.125201
ALN000410828,PUTNAM MIDDLE SCHOOL,"1757 MONTCLAIR RDBIRMINGHAM, AL  35210-2617",JEFFERSON COUNTY,,N,Not on the NPL,No,No,No,33.528459,-86.714923
ALN000410487,RAWHIDE MOBILE HOMES SITE,"663 AIRBASE BOULEVARDMONTGOMERY, AL  36108",MONTGOMERY,,N,Not on the NPL,No,No,No,32.36143,-86.34791
AL0002381747,READING AVE. DISPOSAL - USX ENSLEY,"610 READING AVENUE DBIRMINGHAM, AL  35214",JEFFERSON,,N,Not on the NPL,No,No,No,33.52434,-86.9064
ALN000410349,REBUILT AUTO PAINT & BODY,"621-B AIR BASE BOULEVARDMONTGOMERY, AL  36108-2403",MONTGOMERY,,N,Not on the NPL,No,No,No,32.36169,-86.34797
AL0001909845,RED FOX FERTILIZER CO.,"232 E. INEZ ROADDOTHAN, AL  36301-5762",HOUSTON,,N,Not on the NPL,No,No,No,31.177247,-85.398533
AL0001120039,REDMONT GARDENS,"3829 THORNHILL RD.MOUNTAIN BROOK, AL  35213",JEFFERSON,1000,N,Not on the NPL,No,No,No,33.49468,-86.78006
ALD980844385,REDWING CARRIERS INC SARALAND,"527 US HWY 43SARALAND, AL  36571",MOBILE,5160,N,Currently on the Final NPL,No,Yes,No,30.80833,-88.07306
ALR000044487,"REEF ENVIRONMENTAL SERVICES, LLC","71 TWIN STREETSYLACAUGA, AL  35150-1561",TALLADEGA,,N,Not on the NPL,No,No,No,33.191442,-86.259312
ALD004002838,REICHHOLD CHEMICALS INC,"REICHHOLD RDHOLT, AL  35404",TUSCALOOSA,8600,N,Not on the NPL,No,No,No,33.23665,-87.4777
ALD021257951,"RENTOKIL INITIAL ENVIRONMENTAL SERVICES, LLC","10565 HIGHWAY 43CREOLA, AL  36525",MOBILE,5160,N,Not on the NPL,No,No,No,30.911295,-88.038055
AL0000301747,REV. DAVID JONES PROPERTY,"595 GRADY STREETMONTGOMERY, AL  36108",MONTGOMERY,,N,Not on the NPL,No,No,No,32.36899,-86.31951
ALD049984842,RICHARDS METAL PLATING INC,"529 SOUTH ROYAL AVENUEFLORENCE, AL  35630-4967",LAUDERDALE,,N,Not on the NPL,No,No,No,34.802986,-87.657431
ALD983169947,ROBINSON FOUNDRY INC.,"505 ROBINSON COURTALEXANDER CITY, AL  35010-3523",TALLAPOOSA,,N,Not on the NPL,No,No,No,32.949668,-85.978267
ALSFN0407162,RUDISILL FOUNDRY,"1500 FRONT STREETANNISTON, AL  36201-8273",CALHOUN,,N,Not on the NPL,No,No,No,33.62973,-85.83148
AL0002368827,SEABURY STATION,"5760 MARSHALL ROADEIGHT MILE, AL  36613",MOBILE,,N,Not on the NPL,No,No,No,30.810562,-88.193641
ALN000407362,SHIRLEY RESIDENTIAL INCIDENT,"3960 COVERED BRIDGE ROADCLEVELAND, AL  35049-5713",BLOUNT,,N,Not on the NPL,No,No,No,33.954869,-86.594028
ALN000407757,SHOALS CHRISTIAN SCHOOL MERCURY,"301 HEATHROW DRIVEFLORENCE, AL  35633-1559",LAUDERDALE,,N,Not on the NPL,No,No,No,34.84714,-87.69569
ALD001817295,SIEMENS VDO  PLANT 2,"103 WYNN DRIVEHUNTSVILLE, AL  35805-1956",MADISON,3440,N,Not on the NPL,No,No,No,34.71693,-86.65307
ALN010724001,SIERRA CHEMICAL SUPPLY,"2716 NOBLE STREETANNISTON, AL  36201-2944",CALHOUN,,N,Not on the NPL,No,No,No,33.6808,-85.82987
AL0001401843,SIMS CHAPEL WOOD TREATER,"COUNTY RD 35MC INTOSH, AL  36553",WASHINGTON,,N,Not on the NPL,No,No,No,31.26454,-88.03139
AL0000107797,SKINNER GRAIN AND FERTILIZER,"456 TORO ROADHARTFORD, AL  36344-1401",GENEVA,,N,Not on the NPL,No,No,No,31.099075,-85.67494
ALD983167487,SOUTHERN COTTON OIL,"CHURCH STREETHUNTSVILLE, AL  35801",MADISON,1000,N,Not on the NPL,No,No,No,34.72775,-86.58686
ALD983166034,SOUTHERN PLATING,"1554 DUVAL STMOBILE, AL  36605",MOBILE,5160,N,Not on the NPL,No,No,No,30.66177,-88.0748
ALN000407388,SOUTHERN TOOL INC,"112 HIGHWAY 78 WESTOXFORD, AL  36203",CALHOUN,,N,Not on the NPL,No,No,No,33.60333,-85.84889
ALD980446025,SOUTHLAND AGRICULTURAL CHEMICALS,"1075 CHANDLER ST.MONTGOMERY, AL  36104-2001",MONTGOMERY,5240,N,Not on the NPL,No,No,No,32.39376,-86.31098
ALD982087017,SOUTHLAND INTERNATIONAL TRUCKS,"1563 BELL STREETMONTGOMERY, AL  36104-2931",MONTGOMERY,5240,N,Not on the NPL,No,No,No,32.37613,-86.33773
ALD058223371,STALLWORTH TIMBER COMPANY INCORPORATED,"27 BRYAN STREETBEATRICE, AL  36425",MONROE,,N,Not on the NPL,No,No,No,31.739855,-87.171708
ALD981475601,STAR PLATING,"2103 MARYLAND STREETMUSCLE SHOALS, AL  35661",COLBERT,2650,N,Not on the NPL,No,No,No,34.701035,-87.662802
AL0001923333,STEVENSON STREET FOUNDRY,"STEVENSONFLORENCE, AL  35630",LAUDERDALE,,N,Not on the NPL,No,No,No,34.84294,-87.60365
AL0002368819,SUMMERVILLE ENTERPRISES,"620 HIGHWAY 67DECATUR, AL  35603-6304",MORGAN,,N,Not on the NPL,No,No,No,34.521334,-86.889701
ALD095688875,SYNGENTA CROP PROTECTION INC,"13500 US HWY 43 NBUCKS, AL  36512",MOBILE,5160,N,Currently on the Final NPL,No,Yes,No,30.975,-88.02138
ALD007454085,T.H. AGRICULTURE & NUTRITION CO. (MONTGOMERY PLANT),"3017 BIRMINGHAM HIGHWAYMONTGOMERY, AL  36108",MONTGOMERY,5240,N,Currently on the Final NPL,No,Yes,No,32.3761,-86.3791
ALN000407342,"TALLADEGA FOUNDRY AND MACHINE COMPANY, INCORPORATED","726 STONE AVE.TALLADEGA, AL  35160",TALLADEGA,,N,Not on the NPL,No,No,No,33.440012,-86.088606
ALSFN0407069,TALLADEGA GAS PLANT,"203 SOUTH STREET W.TALLADEGA, AL  35160",TALLADEGA,,N,Not on the NPL,No,No,No,33.432585,-86.102803
ALN000407529,TALLADEGA GAS WORKS,"237 BATTLE STREET WESTTALLADEGA, AL  35160-2428",TALLADEGA,,N,Not on the NPL,No,No,No,33.434341,-86.103763
ALD031639743,TECHNICAL MICRONICS,"210 WYNN DRIVEHUNTSVILLE, AL  35805-1959",MADISON,3440,N,Not on the NPL,No,No,No,34.719397,-86.653556
ALN000407813,TELEGRAPH ROAD SITE,"127 TELEGRAPH ROADCHICKASAW, AL  36611-1344",MOBILE,,N,Not on the NPL,No,No,No,30.760953,-88.073756
AL0001923325,TENNESSEE VALLEY FERTILIZER CO.,"COMMERCE STREETFLORENCE, AL  35630",LAUDERDALE,,N,Not on the NPL,No,No,No,34.80516,-87.6561
AL0001876903,TERRA INTERNATIONAL,"251 KELLY DRDOTHAN, AL  36303-5401",HOUSTON,,N,Not on the NPL,No,No,No,31.21887,-85.35834
ALD072086275,TERRA INTERNATIONAL INC,"500 AIR BASE BLVDMONTGOMERY, AL  361080000",MONTGOMERY,5240,N,Not on the NPL,No,No,No,32.36448,-86.34864
ALN000410586,THEODORE,"7730 DEER RIVER ROADTHEODORE, AL  36582-9360",MOBILE,,N,Not on the NPL,No,No,No,30.53137,-88.10121
ALN000409740,TRAVEL PATH ROAD DRUM,"214 TRAVEL PATH ROADROGERSVILLE, AL  35652-6846",LAUDERDALE,,N,Not on the NPL,No,No,No,34.76309,-87.28169
ALN000407212,TRI-STATE PLANT FOOD,"1615 E BURDESHAW STDOTHAN, AL  36303",HOUSTON,,N,Not on the NPL,No,No,No,31.22707,-85.37269
ALN000410687,TUSCALOOSA TORNADO RESPONSE,"3700 KAULOOSA AVENUETUSCALOOSA, AL  35401",TUSCALOOSA,,N,Not on the NPL,No,No,No,33.175721,-87.562532
ALN000410258,TUSCALOOSA WATER WORKS MERCURY SPILL,"600 7TH AVENUE NWTUSCALOOSA, AL  35405",TUSCALOOSA,,N,Not on the NPL,No,No,No,33.17807,-87.52726
AL7640006667,TVA WHEELER HYDRO PLANT,"24455 AL HWY 101TOWN CREEK, AL  35672-3223",LAWRENCE,,Y,Not on the NPL,No,No,No,34.795582,-87.380935
ALN000409930,TYSON FOODS INC. HEFLIN PROCESSING PLANT,"6879 HIGHWAY 9HEFLIN, AL  36264",CLEBURNE,,N,Not on the NPL,No,No,No,33.557778,-85.608889
AL2690320435,U.S. COAST GUARD SECTOR MOBILE,"SOUTH BROAD STREETMOBILE, AL  36615",MOBILE,5160,Y,Not on the NPL,No,No,No,30.751159,-88.199033
ALSFN0407164,U.S. PIPE & FOUNDRY CO INC U.S. CASTINGS DIV,"1831 FRONT STREETANNISTON, AL  36201-7510",CALHOUN,,N,Not on the NPL,No,No,No,33.625465,-85.83149
ALD031480031,UMICORE SPECIALTY CHEMICALS - ARAB,"1951 GUNTERSVILLE ROADARAB, AL  35016-3993",MARSHALL,3440,N,Not on the NPL,No,No,No,34.343465,-86.455824
ALD047154232,UNION FOUNDRY CO,"1501 WEST 17TH STREETANNISTON, AL  36201-3485",CALHOUN,450,N,Not on the NPL,No,No,No,33.66626,-85.85367
ALSFN0407040,UNION FOUNDRY CO LANDFILL,"REEVES ROADANNISTON, AL  36202",CALHOUN,,N,Not on the NPL,No,No,No,33.684444,-85.874444
ALN000410263,UNIVERSITY BLVD MERCURY,"1904 UNIVERSITY BLVDTUSCALOOSA, AL  35401",TUSCALOOSA,,N,Not on the NPL,No,No,No,33.21167,-87.5619
AL3210020027,US ARMY ANNISTON ARMY DEPOT,"7 FRANKFORD AVENUEANNISTON, AL  36201-4199",CALHOUN,450,Y,Currently on the Final NPL,No,Yes,No,33.65943,-85.96943
AL6210020776,US ARMY AVIATION CENTER (USAAVNC) & FORT RUCKER FIRING RAN,"HIGHWAY 84 AND HIGHWAY 231FORT RUCKER, AL  36362",DALE,,Y,Not on the NPL,No,No,No,31.337222,-85.733889
AL7210020742,US ARMY GARRISON - REDSTONE,"4488 MARTIN ROAD - IMSE-RED-PWEHUNTSVILLE, AL  35898",MADISON,,Y,Currently on the Final NPL,No,Yes,No,34.64694,-86.67305
AL1640090014,US TVA HUNTSVILLE PRIMARY SUBSTATION,"250 POLARD STREETHUNTSVILLE, AL  35801",MADISON,3440,Y,Not on the NPL,No,No,No,34.727604,-86.592026
AL2640006746,US TVA MUSCLE SHOALS,"HWY 133N NEAR WILSON DAMMUSCLE SHOALS, AL  356621010",COLBERT,2650,Y,Not on the NPL,No,No,No,34.767588,-87.650029
AL8640006690,US TVA WIDOWS CREEK FOSSIL PLANT,"2800 STEAM PLANT ROADSTEVENSON, AL  35772",JACKSON,,Y,Not on the NPL,No,No,No,34.883314,-85.755278
AL6210020008,USA ALABAMA ARMY AMMUNITION PLT,"STATE HIGH WAY 235CHILDERSBURG, AL  35044",TALLADEGA,,Y,Currently on the Final NPL,No,Yes,No,33.3381,-86.3268
ALR000046060,VCC WYLAM,"5500 10TH AVENUEPLEASANT GROVE, AL  35127",JEFFERSON,,N,Not on the NPL,No,No,No,33.5016,-86.93531
ALN000409735,VERBENA MERCURY SITE,"COUNTY ROAD 526VERBENA, AL  36091",CHILTON,,N,Not on the NPL,No,No,No,32.73905,-86.48255
ALD047862982,VICTORIAN CLASSICS INC,"3460 BIRMINGHAM HWYMONTGOMERY, AL  36108",MONTGOMERY,5240,N,Not on the NPL,No,No,No,32.37785,-86.37758
ALSFN0406919,VILLA SPIRITS,"1157 HUFFMAN RD.BIRMINGHAM, AL  35215",JEFFERSON,,N,Not on the NPL,No,No,No,33.610705,-86.687389
ALN000410581,VIRGINIA CAROLINA CHEMICAL (VCC) MOBILE,"901 NORTH KATE STREETPRICHARD, AL  36610",MOBILE,,N,Not on the NPL,No,No,No,30.73111,-88.07362
ALD983186123,VIRGINIA CAROLINA CHEMICAL SO,"21ST STREET AND 1 ST AVENUE ON NORTHOPELIKA, AL  36801",LEE,,N,Not on the NPL,No,No,No,32.63406,-85.40871
ALD982140360,VULCAN ENGINEERING CO,"1 VULCAN DRIVE HELENA INDUSTRIAL PARKHELENA, AL  35080-9400",SHELBY,1000,N,Not on the NPL,No,No,No,33.29372,-86.83243
ALD983182668,WADLEY HOLDING PRIMER SPILL,"134 CLAY STREETWADLEY, AL  36276",RANDOLPH,,N,Not on the NPL,No,No,No,33.123337,-85.563672
ALSFN0407058,WADSWORTH BROOKVIEW,"644 OAKBROOK DRIVEMONTGOMERY, AL  36110-1228",MONTGOMERY,,N,Not on the NPL,No,No,No,32.4266,-86.29192
ALSFN0407035,WALKER MANUFACTURING,"531 DOLPHIN ROADHALEYVILLE, AL  35565",WINSTON,,N,Not on the NPL,No,No,No,34.20211,-87.627058
ALD000828848,WALTER COKE INC,"3500 35TH AVE NBIRMINGHAM, AL  35207-2918",JEFFERSON,1000,N,Not on the NPL,No,No,No,33.562745,-86.798906
ALD004025425,WARRIOR ROSIN SPILL,"3049 WARRIOR ROADTUSCALOOSA, AL  35404",TUSCALOOSA,8600,N,Not on the NPL,No,No,No,33.247991,-87.488437
ALD981860216,WEST HUNTSVILLE CLEANERS,"2604 TRIANA BLVDHUNTSVILLE, AL  35805-4058",MADISON,,N,Not on the NPL,No,No,No,34.71336,-86.60914
ALD063690903,WESTPOINT STEVENS INCORPORATED,"591 GLENDALE ROADGREENVILLE, AL  36037-1334",BUTLER,,N,Not on the NPL,No,No,No,31.84547,-86.62684
ALN000410287,WHATLEY HEALTH MERCURY,"2731 MARTIN LUTHER KING JR BLVDTUSCALOOSA, AL  35401",TUSCALOOSA,,N,Not on the NPL,No,No,No,33.187682,-87.577435
ALD983177981,WIEGAND APPLIANCE DIV.,"1199 COUNTY ROAD 9VERNON, AL  35592",LAMAR,,N,Not on the NPL,No,No,No,33.738936,-88.128102
ALSFN0407165,WILLIAMS SCRAP METAL INC,"1704 SOUTH NOBLE STREETANNISTON, AL  36201",CALHOUN,,N,Not on the NPL,No,No,No,33.628754,-85.829157
AL0001412030,WORLEY DRUM SITE,"626 ELM ST.ANNISTON, AL  36201-6518",CALHOUN,450,N,Not on the NPL,No,No,No,33.629686,-85.838781
ARR000019042,A & S AIRCRAFT PAINTING,"2856 HWY 8 EASTMENA, AR  71953-8767",POLK,,N,Not on the NPL,No,No,No,34.552507,-94.203027
ARD982296006,ADM,"901 BOND AVENUELITTLE ROCK, AR  72202",PULASKI,,N,Not on the NPL,No,No,No,34.737778,-92.2475
ARD990869588,"AERO METAL,INC","600 SOUTH MILL STREETNASHVILLE, AR  71852-2549",HOWARD,,N,Not on the NPL,No,No,No,33.938094,-93.842519
AR0002187987,AR CASTINGS INC,"3211 WEST PULLENPINE BLUFF, AR  71601-3242",JEFFERSON,,N,Not on the NPL,No,No,No,34.23094,-92.035559
ARD982286957,AR MUNICIPAL WASTE-ENERGY FAC.,"420 WEST PARSONS DRIVEOSCEOLA, AR  72370-3665",MISSISSIPPI,,N,Not on the NPL,No,No,No,35.694356,-89.970605
ARN000607488,ARKANSAS ZINC SMELTING COMPANY,"3101 KIBLER ROADVAN BUREN, AR  72956",CRAWFORD,,N,Not on the NPL,No,No,No,35.43631,-94.32418
ARD084930148,ARKWOOD INC,"HWY 65 1M SOMAHA, AR  72662",BOONE,,N,Currently on the Final NPL,No,Yes,No,36.445,-93.1964
ARD980496186,CECIL LINDSEY,"SEC 32 T12N R2WNEWPORT, AR  72112",JACKSON,,N,Deleted from the Final NPL,No,Yes,No,35.6349,-91.2255
ARD990660649,CEDAR CHEMICAL,"49 PHILLIPS RD. 311HELENA, AR  72342-9029",PHILLIPS,,N,Currently on the Final NPL,No,No,No,34.5206,-90.6517
ARN000606995,CHERRY PROPERTY,"0.10 MILES NORTHWEST OF 1092 HIGHWAY 75PARKIN, AR  72373",CROSS,,N,Not on the NPL,No,No,No,35.144589,-90.554703
ARN000607512,CLEAN HARBORS EL DORADO LLC,"309 AMERICAN CIRCLEEL DORADO, AR  71730-6554",UNION,,N,Not on the NPL,No,No,No,33.20586,-92.63103
ARD005413273,COOPER STANDARD AUTOMOTIVE INC,"166 COOPER DRIVEEL DORADO, AR  71730-6601",UNION,,N,Not on the NPL,No,No,No,33.200849,-92.611388
ARR000005843,DIAZ INTERMEDIATES CORP,"301 WYANOKE RD.WEST MEMPHIS, AR  72301-6285",CRITTENDEN,,N,Not on the NPL,No,No,No,35.107232,-90.192777
ARD154238109,ECLIPSE INDUSTRIAL PRODUCTS,"3201 WEST 34TH AVEPINE BLUFF, AR  71603-5505",JEFFERSON,,N,Not on the NPL,No,No,No,34.19458,-92.03653
ARN000606890,ELDRIDGE ROAD GROUNDWATER PLUME,"ELDRIDGE ROADFORREST CITY, AR  72335",ST. FRANCIS,,N,Not on the NPL,No,No,No,35.03739,-90.79347
ARN000607343,FLANDERS INDUSTRIES INC,"1901 WHEELER AVENUEFORT SMITH, AR  72901-5425",SEBASTIAN,,N,Not on the NPL,No,No,No,35.36363,-94.42617
ARN000607117,FOUKE-UNKNOWN,"2338 MILLER CR 217FOUKE, AR  71837",MILLER,,N,Not on the NPL,No,No,No,33.26735,-93.945272
ARD059636456,FRIT INDUSTRIES,"156 FRIT DRIVEWALNUT RIDGE, AR  72476",LAWRENCE,,N,Deleted from the Final NPL,No,No,No,36.105,-90.94166
ARN000607506,GRACE SIERRA,"3713 HIGHWAY 32 NORTHHOPE, AR  71801",HEMPSTEAD,,N,Not on the NPL,No,No,No,33.724625,-93.640068
ARD981055494,GRIFFING RAILWAY,"SCHOOL STREETEL DORADO, AR  71730",UNION,,N,Not on the NPL,No,No,No,33.198523,-92.670966
ARD035662469,GURLEY PIT,"1 MI N OF EDMONDSONEDMONDSON, AR  72332",CRITTENDEN,4920,N,Deleted from the Final NPL,No,Yes,No,35.1209,-90.3116
ARD107288391,"HAZEN POWDER PARTS, LLC","1339 HWY 63 NHAZEN, AR  72064-8133",PRAIRIE,,N,Not on the NPL,No,No,No,34.779877,-91.565639
ARN000607050,HOPE IRON AND METAL,"812 N. MAIN STREETHOPE, AR  71801",HEMPSTEAD,,N,Not on the NPL,No,No,No,33.675907,-93.594852
ARD980496368,INDUSTRIAL WASTE CONTROL,"BONANZA ROADFORT SMITH, AR  72901",SEBASTIAN,2720,N,Deleted from the Final NPL,No,Yes,No,35.2402,-94.3525
ARD980809941,JACKSONVILLE MUNICIPAL LANDFILL,"GRAHAM RDJACKSONVILLE, AR  72076",PULASKI,4400,N,Deleted from the Final NPL,No,Yes,No,34.86333,-92.07166
ARD980869580,MAGCOBAR MINE,"1M NE MAGNET COVEMALVERN, AR  72104",HOT SPRING,,N,Not on the NPL,No,No,No,34.467191,-92.821264
ARD092916188,MID-SOUTH WOOD PRODUCTS,"HIGHWAY 71 SOUTH 3 BLOCKS S-S REINE STMENA, AR  71953",POLK,,N,Currently on the Final NPL,No,Yes,No,34.5697,-94.2566
ARD980745665,MIDLAND PRODUCTS,"1/2 MI E ON HIGHWAY 10OLA, AR  72853",YELL,,N,Currently on the Final NPL,No,Yes,No,35.025,-93.20388
ARD980864110,MONROE AUTO EQUIPMENT CO. (PARAGOULD PIT),"HWY 358 2 1/2 MI W OF TOWNPARAGOULD, AR  72450",GREENE,,N,Currently on the Final NPL,No,Yes,No,36.02083,-90.575
ARD049658628,MOUNTAIN PINE PRESSURE TREATING CO. INC,"HWY 28 W & 3RD STREETPLAINVIEW, AR  72857",YELL,,N,Currently on the Final NPL,No,Yes,No,34.98416,-93.30222
ARN000606985,"NORPHLET CHEMICAL, INC.","600 MACMILLAN RDNORPHLET, AR  71759",UNION,,N,Not on the NPL,No,No,No,33.310343,-92.657826
ARN000607042,NORTH LITTLE ROCK AUTO SALVAGE,"600 DIXIE LANENORTH LITTLE ROCK, AR  72114-5247",PULASKI,,N,Not on the NPL,No,No,No,34.75794,-92.23049
ARD042755231,OUACHITA NEVADA COUNTY TREATING COMP,"PO BOX 1 READER STATIONCHIDESTER, AR  71726-0001",OUACHITA,,N,Currently on the Final NPL,No,Yes,No,33.75945,-93.10425
ARD006349187,PLAINVIEW LUMBER COMPANY,"HWY 28 W & 3RD STPLAINVIEW, AR  72857",YELL,,N,Site is Part of NPL Site,No,No,No,34.986755,-93.30352
ARD008052508,POPILE COMPANY INC,"SOUTHFIELD ROADEL DORADO, AR  71730",UNION,,N,Currently on the Final NPL,No,Yes,No,33.1825,-92.67333
ARN000607141,POTLATCH FOREST PRODUCTS CORP PRESCOTT LUMBER,"200 MILL STPRESCOTT, AR  71857",NEVADA,,N,Not on the NPL,No,No,No,33.807865,-93.396975
ARD006345920,PRECISION INDUSTRIES,"1002 E SECTION LINEMALVERN, AR  72104-4108",HOT SPRING,,N,Not on the NPL,No,No,No,34.365286,-92.800002
AR0000605322,RED RIVER ALUMINUM INCORPORATED,"HIGHWAY 82 WESTSTAMPS, AR  71860",LAFAYETTE,,N,Not on the NPL,No,No,No,33.366439,-93.514783
ARN000607363,REDWOOD EARLY CHILDHOOD CENTER ASBESTOS REMOVAL,"401 REDWOOD ST.NORTH LITTLE ROCK, AR  72114",PULASKI,,N,Not on the NPL,No,No,No,34.75623,-92.23538
ARN000607098,"RIVERTRAIL, INC.","369 FACTORY RDCLINTON, AR  72031",VAN BUREN,,N,Not on the NPL,No,No,No,35.58395,-92.44607
ARD981055809,ROGERS ROAD MUNICIPAL LANDFILL,"ROGER RD 2/10MI S OF GRAHAM RDJACKSONVILLE, AR  72076",PULASKI,4400,N,Deleted from the Final NPL,No,Yes,No,34.8627,-92.0778
ARD980496723,SOUTH 8TH STREET LANDFILL,"SOUTH EIGHTH STREETWEST MEMPHIS, AR  72301",CRITTENDEN,4920,N,Deleted from the Final NPL,No,Yes,No,35.12444,-90.16944
ARN000607344,SR - ARKANSAS,"68 UNION ST.WILSON, AR  72395",MISSISSIPPI,,N,Not on the NPL,No,No,No,35.564057,-90.036168
ARD065320293,"TIFFANY INDUSTRIES, INC","2110 NORTH SALEM ROADCONWAY, AR  72034-7304",FAULKNER,,N,Not on the NPL,No,No,No,35.1071,-92.4709
AR6571824808,US DOD USAF LITTLE ROCK AFB AR,"966 CANNON DRIVEJACKSONVILLE, AR  72076",PULASKI,4400,Y,Not on the NPL,No,No,No,34.905327,-92.140961
ARD000023440,VERTAC CHEMICAL CORPORATION,"MARSHALL RD, .75M W ON HWY 167JACKSONVILLE, AR  72076",PULASKI,4400,N,Currently on the Final NPL,No,Yes,No,34.878,-92.1312
ASN000906056,LAULI'I WAREHOUSE,"LAULI'I VILLAGEPAGO PAGO, AS  96799",AMERICAN SAMOA,,N,Not on the NPL,No,No,No,-14.289289,-170.656203
ASD980637656,TAPUTIMU FARM,"TAPUTIMU ISLAND OF TUTUILAPAGO PAGO, AS  96799",AMERICAN SAMOA,,N,Deleted from the Final NPL,No,Yes,No,-14.3601,-170.772
AZD980496780,19TH AVENUE LANDFILL,"19TH AVE AND LOWER BUCKEYEPHOENIX, AZ  85007",MARICOPA,6200,N,Deleted from the Final NPL,No,Yes,No,33.41666,-112.0917
NND982399875,ABANDONED COPPER MINE,"COPPER MINEFREDONIA, AZ  86022",COCONINO,,N,Not on the NPL,No,No,No,36.62664,-111.44031
NNN000906087,ABANDONED URANIUM MINES ON THE NAVAJO NATION,"NAVAJO NATIONWINDOW ROCK, AZ  86515",APACHE,,N,Not on the NPL,No,No,No,35.652056,-109.067389
AZD981167240,ABITIBI CONSOLIDATED SALES CORP,"HIGHWAY 277 SPUR 15 MILES WEST OFSNOWFLAKE, AZ  85937",NAVAJO,,N,Not on the NPL,No,No,No,34.50494,-110.334511
AZD009405309,ABRAMS AIRBORNE MANUFACTURING INC,"3735 N. ROMERO RD.TUCSON, AZ  85705-3091",PIMA,8520,N,Not on the NPL,No,No,No,32.27456,-111.00338
AZN000908694,AGUA FRIA HIGH SCHOOL MERCURY,"530 EAST RILEY DRIVEAVONDALE, AZ  85323-2154",MARICOPA,,N,Not on the NPL,No,No,No,33.43896,-112.34327
AZD064946742,ANAMAX MINING CO TWIN BUTTESMINE,"TWIN BUTTES MINING RD.GREEN VALLEY, AZ  85614",PIMA,8520,N,Not on the NPL,No,No,No,31.908333,-111.033611
AZN000908518,ANDA LAUNDRY COIN,"1989 N GRAND AVENOGALES, AZ  85621-1341",SANTA CRUZ,,N,Not on the NPL,No,No,No,31.368578,-110.931285
AZD008399263,APACHE NITROGEN PRODUCTS INC,"1436 SOUTH APACHE POWDER ROADBENSON, AZ  856020700",COCHISE,,N,Currently on the Final NPL,No,Yes,No,31.88,-110.24
AZN000905636,ARI-ZONOLITE CO/WR GRACE,"6960 SOUTHWEST 52ND AVEGLENDALE, AZ  85301",MARICOPA,,N,Not on the NPL,No,No,No,33.53884,-112.17071
AZ9573124055,ARIZONA AIR NATIONAL GUARD,"1500 EAST VALENCIA ROADTUCSON, AZ  85706-6020",PIMA,8520,Y,Not on the NPL,No,No,No,32.13404,-110.94874
AZ0001907500,ARIZONA ARMY NATIONAL GUARD SAFFORD RANGE,"3625 SOUTH HIGHWAY 191SAFFORD, AZ  85546",GRAHAM,,Y,Not on the NPL,No,No,No,32.816417,-109.654722
AZD070254008,ARIZONA CASTINGS INC,"115 N PERRY LNTEMPE, AZ  85281-2232",MARICOPA,6200,N,Site is Part of NPL Site,No,No,No,33.429065,-111.904761
AZ6140990049,ARIZONA PROJECTS OFFICE,"2636 N 7TH STPHOENIX, AZ  85006",MARICOPA,6200,Y,Not on the NPL,No,No,No,33.477096,-112.065089
AZD008397127,ASARCO LLC RAY COMPLEX/ HAYDEN SMELTER & CONCENTRATOR,"640 ASARCO AVEHAYDEN, AZ  85235",GILA,,N,Not on the NPL,No,No,No,33.001796,-110.777946
AZN000908792,AZTEC SPECIALTY CHEMICAL,"2120 S 15TH PLACEPHOENIX, AZ  85034",MARICOPA,,N,Not on the NPL,No,No,No,33.42631,-112.04888
AZD000819565,BEAN AND CO,"9450 S SALOME ROADPALO VERDE, AZ  85343",MARICOPA,6200,N,Not on the NPL,No,No,No,33.362589,-112.745028
AZT000624353,BHP COPPPER INC PINTO VALLEY OPERATION,"HIGHWAY 60 AND DAVIS CANYON ROADMIAMI, AZ  85539",GILA,,N,Not on the NPL,No,No,No,33.367167,-110.939613
AZD054408794,BULL HN INFORMATION SYSTEMS INC,"13430 NORTH BLACK CANYON HIGHWAYPHOENIX, AZ  85029-1348",MARICOPA,6200,N,Not on the NPL,No,No,No,33.60526,-112.11712
NN0001166255,CAMERON AGGREGATED URANIUM MINES,"T28-29N, R9-11E,   CAMERON AZCAMERON, AZ  86020",COCONINO,,N,Not on the NPL,No,No,No,35.875,-111.413333
AZ0001038553,CITIZENS UTILITIES,"1710 NORTH MASTIC WAYNOGALES, AZ  85621-1013",SANTA CRUZ,,N,Not on the NPL,No,No,No,31.364241,-110.930622
AZ0140090069,COCOPAH SANITARY LANDFILL,"COUNTY HWY 15 AND AVE GSOMERTON, AZ  85350",YUMA,,Y,Not on the NPL,No,No,No,32.596561,-114.676027
AZD094524097,CYPRUS TOHONO COPPER MINE,"INDIAN ROAD 15CASA GRANDE, AZ  85230",PINAL,,N,Not on the NPL,No,No,No,32.528611,-111.916111
AZD038444154,DCE CIRCUITS,"1310 E 8TH STTEMPE, AZ  85281",MARICOPA,6200,N,Site is Part of NPL Site,No,No,No,33.41932,-111.91595
AZ0001300136,EC WINTERS OIL SERVICE - FORMER,"3100 W CURTIS AVETUCSON, AZ  85705-1004",PIMA,8520,N,Not on the NPL,No,No,No,32.30147,-111.03349
NND982399982,ENOS JOHNSON URANIUM MINE-RED VALLEY,"RED VALLEYRED VALLEY, AZ  86544",APACHE,,N,Not on the NPL,No,No,No,36.908333,-109.1
AZD980816102,ENVIRONMENTAL WASTE ENTPR INC,"830 W HOLMES RDELOY, AZ  85231",PINAL,,N,Not on the NPL,No,No,No,32.75,-111.566667
AZD035900729,F&B MFG CO,"4316 N 39TH AVEPHOENIX, AZ  850190000",MARICOPA,6200,N,Not on the NPL,No,No,No,33.49914,-112.14292
AZN000908770,FELTON KING PROPERTY,"611 S 15TH AVEPHOENIX, AZ  85007",MARICOPA,,N,Not on the NPL,No,No,No,33.441378,-112.09129
AZ8141190076,FREEPORT-MCMORAN SIERRITA INC,"6200 WEST DUVAL MINE ROADGREEN VALLEY, AZ  85614",PIMA,8520,N,Not on the NPL,No,No,No,31.87094,-111.09486
AZD983478488,GIBSON MINE,"9M W OF MIAMI OFF RTE 60 TO FOREST SVC.MIAMI, AZ  85539",GILA,,N,Not on the NPL,No,No,No,33.399573,-110.869231
AZSFN0905455,GILA RIVER INDIAN COMMUNITY TOXAPHENE SITE,"S KYRENE AND E PECOS ROADSCHANDLER, AZ  85225",MARICOPA,,N,Not on the NPL,No,No,No,33.29072,-111.94568
AZD981621881,GILA RIVER INDIAN RESERVATION,"MARICOPA COUNTYMARICOPA, AZ  85239",MARICOPA,,N,Not on the NPL,No,No,No,33.001921,-112.381462
AZD983480401,GILBERT PUMP OF TUCSON,"2840 W. RUTHRAUFF RD.TUCSON, AZ  85705",PIMA,8520,N,Site is Part of NPL Site,No,No,No,32.29423,-111.02796
AZN000909341,GLOBE (KYLE)  ASBESTOS MILL,"8214 S ICE HOUSE CANYON RDGLOBE, AZ  85501",GILA,,N,Not on the NPL,No,No,No,33.373946,-110.776516
AZN000908432,GLOBE CLEANERS,"160 E. SYCAMORE ST.GLOBE, AZ  85501",GILA,,N,Not on the NPL,No,No,No,33.395898,-110.784603
AZD008398786,GOODYEAR AEROSPACE CORP,"101 S LITCHFIELD RDLITCHFIELD PARK, AZ  85340",MARICOPA,6200,N,Site is Part of NPL Site,No,No,No,33.49339,-112.36245
AZD982411092,GRANDWAY CLEANERS,"200 W FRONTIER- STE LPAYSON, AZ  85541-5360",GILA,,N,Not on the NPL,No,No,No,34.231891,-111.32569
AZD130582224,GRIFFIN CORPORATION,"1250 EAST BASELINE ROAD SUITE 105TEMPE, AZ  85283-1439",MARICOPA,,N,Not on the NPL,No,No,No,33.37835,-111.91811
AZN000908431,GRIFFITH COMPANY,"385 N. BROAD ST.GLOBE, AZ  85501",GILA,,N,Not on the NPL,No,No,No,33.398133,-110.78825
AZD980735666,HASSAYAMPA LANDFILL,"OLD WICKENBURG RDHASSAYAMPA, AZ  85343",MARICOPA,6200,N,Currently on the Final NPL,No,Yes,No,33.36833,-112.7483
AZ5120090068,HASSAYAMPA/LYNX CREEK ABANDONED MINES,"5 MILES SE PRESCOTT-PRESCOTT NATL FORESTPRESCOTT, AZ  86301",YAVAPAI,,Y,Not on the NPL,No,No,No,34.546667,-112.471667
AZ0001300177,HI ALI MOTEL,"132 W COWELL STQUARTZSITE, AZ  85346",LA PAZ,,N,Not on the NPL,No,No,No,33.667463,-114.21821
AZD008397242,HILL BROTHERS CHEMICAL CO,"4450 NORTH 42ND AVENUEPHOENIX, AZ  85019-3303",MARICOPA,6200,N,Not on the NPL,No,No,No,33.50194,-112.14871
AZN000905867,HILLSIDE MINE,"BOULDER CREEK 4 MILES W OF BAGDADBAGDAD, AZ  86321",YAVAPAI,,N,Not on the NPL,No,No,No,34.57401,-113.17677
AZD009000050,HONEYWELL ENGINES SYSTEMS,"111 SOUTH 34TH STREETPHOENIX, AZ  85034-2802",MARICOPA,6200,N,Site is Part of NPL Site,No,No,No,33.447074,-112.007193
AZN000906020,HUMBOLDT SMELTER,"END OF MAIN STREETHUMBOLDT, AZ  86329",YAVAPAI,,N,Site is Part of NPL Site,No,No,No,34.491944,-112.229444
AZD980695969,INDIAN BEND WASH AREA,"MCDOWELL RD & HAYDENSCOTTSDALE, AZ  85253",MARICOPA,6200,N,Currently on the Final NPL,No,Yes,No,33.46666,-111.9083
AZ0000309013,IRON KING MINE - HUMBOLDT SMELTER,"PARTS OF SECS 15,16&22, TWP 13N, RNG 1EDEWEY-HUMBOLDT, AZ  86327",YAVAPAI,,N,Currently on the Final NPL,No,No,No,34.503333,-112.236667
AZN000908536,JIFFY DRY CLEANERS,"2628 HIGHWAY 95BULLHEAD CITY, AZ  86442",MOHAVE,,N,Not on the NPL,No,No,No,35.090222,-114.59808
AZD081707762,LANSDALE SEMICONDUCTOR - FORMER,"3600 WEST OSBORN RDPHOENIX, AZ  85019-4002",MARICOPA,6200,N,Not on the NPL,No,No,No,33.48766,-112.13648
AZD981630635,LAYKE INC,"3330 W OSBORN RDPHOENIX, AZ  85017-4892",MARICOPA,6200,N,Not on the NPL,No,No,No,33.488085,-112.130851
AZD983483785,LIBERTY SUBSTATION,"TUTHILL ROAD AND BROADWAYBUCKEYE, AZ  85326",MARICOPA,6200,Y,Not on the NPL,No,No,No,33.288364,-112.497537
AZ0000309096,MCCLEUR TAILINGS,"8M S. ON SENATOR HWY.PRESCOTT, AZ  86301",YAVAPAI,,N,Not on the NPL,No,No,No,34.42377,-112.42619
AZD041458555,MCCULLOCH CORPORATION,"900 NORTH LAKE HAVASU AVENUELAKE HAVASU CITY, AZ  86403-2845",MOHAVE,,N,Not on the NPL,No,No,No,34.50208,-114.348
AZN000908811,MERCURY ON A CORNER ER,"621 N COLORADO AVEWINSLOW, AZ  86047",NAVAJO,,N,Not on the NPL,No,No,No,35.02634,-110.69245
NND983466780,"MESA II MINES NO. 1 & 2, P-21","LUKACHUKAI MOUNTAINS AREA/COVE CHAPTERRED VALLEY, AZ  86544",APACHE,,N,Not on the NPL,No,No,No,36.510833,-109.228333
AZN000906137,MESA RICIN BEANS,"1030 SOUTH DOBSON ROADMESA, AZ  85202-2916",MARICOPA,,N,Not on the NPL,No,No,No,33.39582,-111.8746
AZD983480716,MINEREC MINING CHEMICALS,"300 E VAMORI STTUCSON, AZ  857069676",PIMA,,N,Not on the NPL,No,No,No,32.11079,-110.96426
AZD981630478,MISSION UNIFORM AND LINEN,"301 SOUTH PARK AVENUETUCSON, AZ  85719-6131",PIMA,,N,Not on the NPL,No,No,No,32.21828,-110.95637
AZD980735724,MOUNTAIN VIEW MOBILE HOME ESTATES,"RTE 77GLOBE, AZ  85501",GILA,,N,Deleted from the Final NPL,No,Yes,No,33.3728,-110.7332
AZN000908551,NORTH 19TH AVENUE MERCURY SPILL,"9400 N. 19TH AVEPHOENIX, AZ  85021",MARICOPA,,N,Not on the NPL,No,No,No,33.57214,-112.09965
AZD983479882,OLD PAYSON DRY CLEANERS,"906 SOUTH BEELINE HWYPAYSON, AZ  85541-5411",GILA,,N,Not on the NPL,No,No,No,34.228836,-111.327321
AZD982002990,OLIVERS CLEANERS - FORMER,"300 E 7TH STTUCSON, AZ  85705",PIMA,,N,Not on the NPL,No,No,No,32.22641,-110.96668
AZD009004177,ON SEMICONDUCTOR SCI LLC,"5005 EAST MCDOWELL ROADPHOENIX, AZ  85008-4229",MARICOPA,6200,N,Currently on the Final NPL,No,Yes,No,33.46166,-111.9708
AZR000043216,PACIFIC WASTE DISPOSAL SERVICES,"8380 SOUTH NOGALES HIGHWAYTUCSON, AZ  85756-9644",PIMA,,N,Not on the NPL,No,No,No,32.09981,-110.9598
AZD081687063,PHELPS DODGE CORP NEW CORNELIA BRANCH,"MAIN STAJO, AZ  85321",PIMA,8520,N,Not on the NPL,No,No,No,32.369598,-112.85927
AZD980695902,PHOENIX-GOODYEAR AIRPORT AREA,"BETWEEN LWR BUCKEYE ROAD & VAN BURENGOODYEAR, AZ  85338",MARICOPA,6200,N,Currently on the Final NPL,No,Yes,No,33.42971,-112.3653
AZ1122307555,PRESCOTT NATIONAL FOREST (USDA),"344 SOUTH CORTEZ STREETPRESCOTT, AZ  86303-4398",YAVAPAI COUNTY,,Y,Not on the NPL,No,No,No,34.53667,-112.46879
AZD074440470,QUICK TURN CIRCUITS INCORPORATED,"1831 SOUTH CENTRAL AVENUEPHOENIX, AZ  85004-2905",MARICOPA,6200,N,Not on the NPL,No,No,No,33.42949,-112.07375
AZN000908556,RIGHT WAY CLEANERS,"2500 N. ORACLE ROADTUCSON, AZ  85705-4324",PIMA,,N,Not on the NPL,No,No,No,32.25229,-110.978
AZ0000309195,ROLLING PROPERTY,"10-38 NORTH PARK AVENUETUCSON, AZ  85719",PIMA,8520,N,Not on the NPL,No,No,No,32.22174,-110.95633
AZ0000032433,SAN FRANCISCO RIVER MINE TAILINGS,"N. INTERSEC. HWY 191 1.5 M SOUTHCLIFTON (SOUTH), AZ  85533",GREENLEE,,N,Not on the NPL,No,No,No,33.05,-109.296667
AZD983484775,SHUMWAY MILLSITES,"W OF HWY 87/S OF PAYSON, MILEPOST 248PAYSON, AZ  85541",GILA,,Y,Not on the NPL,No,No,No,34.190514,-111.33195
AZD001886654,SUPERIOR OPERATIONS,"MAIN STSUPERIOR, AZ  85273",PINAL,,N,Not on the NPL,No,No,No,33.300889,-111.102619
AZD982007338,TARR ACQUISITION LLC,"4115 WEST TURNEYPHOENIX, AZ  85019-3323",MARICOPA,6200,N,Not on the NPL,No,No,No,33.50044,-112.14734
AZ0002021608,THERM-O-ROCK WEST INCORPORATED,"6732 WEST WILLIS ROADCHANDLER, AZ  85226-5231",MARICOPA,,N,Not on the NPL,No,No,No,33.284539,-111.956898
AZ0000309260,THREE R MINE,"THREE R CANYON ROADPATAGONIA, AZ  85624",SANTA CRUZ,,N,Not on the NPL,No,No,No,31.475531,-110.76124
AZN000905683,TI TRAILERS,"648 LAKE HAVASU AVELAKE HAVASU CITY, AZ  86403-3633",MOHAVE,,N,Not on the NPL,No,No,No,34.49362,-114.34795
AZD035914084,TRIUMPH PRECISION,"3640 WEST OSBORN ROADPHOENIX, AZ  85019-4006",MARICOPA,6200,N,Not on the NPL,No,No,No,33.48922,-112.13774
NN0001166321,TSE-TAH AGGREGATED URANIUM MINES,"T40N, R28E-R29ETEEC NOS POS, AZ  86514",APACHE,,N,Not on the NPL,No,No,No,36.91,-109.1
NND982400145,TUBA CITY ABANDONED LDFL,"TUBA CITYTUBA CITY, AZ  86045",COCONINO,,N,Not on the NPL,No,No,No,36.1257,-111.23689
AZD980737530,TUCSON INTERNATIONAL AIRPORT AREA,"NOGALES HWYTUCSON, AZ  85734",PIMA,8520,N,Currently on the Final NPL,No,Yes,No,32.10556,-110.9333
AZ4211890021,U.S. ARMY NATIONAL GUARD PAPAGO PARK RANGE,"5636 E MCDOWELL RDPHOENIX, AZ  850083495",MARICOPA,,Y,Not on the NPL,No,No,No,33.465454,-111.960632
AZN000909469,UNITED MINES TUCSON CYANIDES,"9100 E INDIAN HILLS RDTUCSON,, AZ  85749",PIMA,,N,Not on the NPL,No,No,No,32.26863,-110.79801
AZD983479809,UNIVAR USA INC,"2930 W OSBORN RDPHOENIX, AZ  85017-4932",MARICOPA,6200,N,Not on the NPL,No,No,No,33.48768,-112.12201
AZ4570024055,US DOD USAF DAVIS-MONTHAN AFB,"355 CES/CEANDAVIS MONTHAN AFB, AZ  85707",PIMA,8520,Y,Not on the NPL,No,No,No,32.177886,-110.880984
AZ0570024133,US DOD USAF LUKE AFB,"14002 WEST MARAUDER STREETGLENDALE, AZ  853091125",MARICOPA,6200,Y,Deleted from the Final NPL,No,Yes,No,33.54,-112.3567
AZ0971590062,US MARINE CORPS AIR STATION YUMA,"AVENUE 3EYUMA, AZ  853699110",YUMA,,Y,Currently on the Final NPL,No,Yes,No,32.65458,-114.5888
AZD981674443,VIKING CLEANERS - FORMER,"4029 N 32ND STPHOENIX, AZ  85018-4905",MARICOPA,6200,N,Not on the NPL,No,No,No,33.494537,-112.012884
AZ0000262725,VULTURE MILL SITE ADEQ,"1067 TEGNER STREET HIGHWAY 90WICKENBURG, AZ  85390-1472",MARICOPA,6200,N,Not on the NPL,No,No,No,33.981117,-112.738222
AZD051452563,W R GRACE & COMPANY GRACE CONSTRUCTION PRODUCTS,"4220 W. GLENROSAPHOENIX, AZ  85019-3309",MARICOPA,,N,Not on the NPL,No,No,No,33.49863,-112.15032
AZSFN0905458,WELCOME RV PARK,"106 W. COWELL LANEQUARTZSITE, AZ  85346",LA PAZ,,N,Not on the NPL,No,No,No,33.667955,-114.21826
AZD058786724,WESTERN DYNEX,"3536 W OSBORNPHOENIX, AZ  85019-4045",MARICOPA,6200,N,Not on the NPL,No,No,No,33.48767,-112.13562
AZN000908823,WICKENBURG VULTURE MERCURY DROPPINGS SITE,"INTERSECTION 25950 ROCKAWAY HILL DRIVEMORRISTOWN, AZ  85342",MARICOPA,,N,Not on the NPL,No,No,No,33.854782,-112.622027
AZ7570028582,WILLIAMS AIR FORCE BASE,"6001 S POWER BLDG 1MESA, AZ  852060901",MARICOPA,6200,Y,Currently on the Final NPL,No,Yes,No,33.30695,-111.6519
CAT000611350,1990 BAY ROAD,"1990 BAY ROADEAST PALO ALTO, CA  94303-1313",SAN MATEO,7360,N,Removed from Proposed NPL,No,Yes,No,37.473252,-122.130343
CAD982470197,3103 W 50TH STREET,"3103 W 50TH STROSAMOND, CA  93560",KERN,680,N,Not on the NPL,No,No,No,34.86539,-118.220312
CAN000905908,38TH AND QUINCE STREET,"38TH AND QUINCE STREETSAN DIEGO, CA  92104",SAN DIEGO,,N,Not on the NPL,No,No,No,32.73661,-117.11139
CAN000905866,58TH STREET DRUM SITE,"1166-1188 E 58TH STREETLOS ANGELES, CA  90011-4861",LOS ANGELES,,N,Not on the NPL,No,No,No,33.99016,-118.25483
CAN000909049,6TH AND CORONA,"1436 EAST 6TH ST.CORONA, CA  92879-1713",RIVERSIDE,,N,Not on the NPL,No,No,No,33.87369,-117.53701
CAN000905907,A-AMERICAN ENVIRONMENTAL (AMERICAN RECOVERY INC.),"3033 WEST MISSION ROADALHAMBRA, CA  91803-1111",LOS ANGELES,,N,Not on the NPL,No,No,No,34.07877,-118.15717
CAD980695860,AAA PUMPING SERVICE - 1,"1714 CHARLINDAWEST COVINA, CA  91791-2607",LOS ANGELES,4480,N,Site is Part of NPL Site,No,No,No,34.06195,-117.90969
CAD980735740,AAA PUMPING SERVICE - 2,"NR 3264 GILMAN RDEL MONTE, CA  91732",LOS ANGELES,4480,N,Site is Part of NPL Site,No,No,No,34.061258,-118.010372
CAD981414386,AAD,"2306 E. 38TH STVERNON, CA  90058",LOS ANGELES,,N,Not on the NPL,No,No,No,34.00807,-118.2324
CAN000905684,AAD VERNON TRUCK SITE,"37TH AND IRVING ST.VERNON, CA  90058",LOS ANGELES,,N,Not on the NPL,No,No,No,34.00897,-118.23291
CA0001186154,ABLE METALS PLATING,"932 86TH AVENUEOAKLAND, CA  94621-1642",ALAMEDA,7360,N,Not on the NPL,No,No,No,37.747617,-122.186394
CA0000032227,ACCURATE STEEL TREATING,"10008 MILLER WAYSOUTH GATE, CA  90280",LOS ANGELES,,N,Not on the NPL,No,No,No,33.9401,-118.16991
CAD009108861,ACME GALVANIZING CO INC,"1655 17TH ST.OAKLAND, CA  94607",ALAMEDA,,N,Not on the NPL,No,No,No,37.81435,-122.29428
CAD983644998,"ACME SALVAGE, INC.","1885 SEBASTOPOL RDSANTA ROSA, CA  95407",SONOMA,7500,N,Not on the NPL,No,No,No,38.42718,-122.73968
CAD008339863,ACROMILL,"18421 RAILROAD ST.ROWLAND HEIGHTS, CA  91748-1281",LOS ANGELES,4480,N,Site is Part of NPL Site,No,No,No,33.99723,-117.90091
CAN000906122,ADVANCED FUEL FILTRATION INC.,"1451 MAGNOLIACORONA, CA  92879-2072",RIVERSIDE,,N,Not on the NPL,No,No,No,33.86995,-117.53512
CAD049236201,ADVANCED MICRO DEVICES INC,"1165 E. ARQUES AVE.SUNNYVALE, CA  94085-3904",SANTA CLARA,7400,N,Currently on the Final NPL,No,Yes,No,37.3816,-121.9968
CAD048634059,ADVANCED MICRO DEVICES INC 901 FACILITY,"901 THOMPSON PLSUNNYVALE, CA  94085-4518",SANTA CLARA,7400,N,Currently on the Final NPL,No,Yes,No,37.3825,-122.0086
CAN000908363,ADVANCED PACKAGING & PRODUCTS CO,"16131 S. MAPLE AVE.GARDENA, CA  90248",LOS ANGELES,,N,Not on the NPL,No,No,No,33.88489,-118.27069
CAN000909562,AERO CHROM PLATING,"14660 ARMINTA STPANORAMA CITY, CA  91402",LOS ANGELES,,N,Not on the NPL,No,No,No,34.213293,-118.452317
CAD009154469,AERO QUALITY PLATING,"710 73RD AVEOAKLAND, CA  94621",ALAMEDA,7360,N,Not on the NPL,No,No,No,37.75256,-122.19746
CAD056444524,AEROSOL SERVICES CO INC,"425 SOUTH 9TH AVENUELA PUENTE, CA  91746-3314",LOS ANGELES,4480,N,Not on the NPL,No,No,No,34.02605,-117.97153
CAN000908280,AIRCRAFT PLATING CO INC,"12233 S. PRAIRIE AVE.HAWTHORNE, CA  90250-4019",LOS ANGELES,,N,Not on the NPL,No,No,No,33.921341,-118.343859
CAN000906032,AIRGAS NORTHERN CALIFORNIA & NEVADA INC.,"3011 ACADEMY WAYSACRAMENTO, CA  95815",SACRAMENTO,,N,Not on the NPL,No,No,No,38.62081,-121.42651
CASFN0905461,ALADDIN CLEANERS,"105 TERRACE BOULEVARDHEALDSBURG, CA  95448-3228",SONOMA,,N,Not on the NPL,No,No,No,38.628043,-122.872623
CAN000908818,ALAMEDA COUNTY MERCURY MYSTERY,"25514 DEL MAR AVENUEHAYWARD, CA  94542-1864",ALAMEDA,,N,Not on the NPL,No,No,No,37.65629,-122.06884
CAD980636393,ALAMEDA ST SAN LDFL,"22700 S ALAMEDA STCARSON, CA  90810",LOS ANGELES,4480,N,Not on the NPL,No,No,No,33.818525,-118.23064
CAN000906066,ALAN AVE,"440 ALAN AVEWOODBRIDGE, CA  95258",SAN JOAQUIN,,N,Not on the NPL,No,No,No,38.15643,-121.31083
CAD098229214,ALARK HARD CHROME,"2777 MAIN STRIVERSIDE, CA  925012536",RIVERSIDE,6780,N,Currently on the Final NPL,No,No,No,33.99188,-117.36718
CAD008292435,ALCO CAD-NICKEL PLATING CORP,"1400 LONG BEACH AVE.LOS ANGELES, CA  90021",LOS ANGELES,4480,N,Not on the NPL,No,No,No,34.02579,-118.24129
CAD983620642,ALEMANY HOUSING PROJECT,"956 ELSWORTH/ALEMANY BLVD.SAN FRANCISCO, CA  94110",SAN FRANCISCO,7360,N,Not on the NPL,No,No,No,37.732875,-122.418024
CAN000908824,ALERT PLATING CO,"9939 GLENOAKS BLVD.SUN VALLEY, CA  91352",LOS ANGELES,,N,Not on the NPL,No,No,No,34.250993,-118.388559
CAD008297996,ALL METALS PROCESSING CO INC,"264 W. SPAZIER AVE.BURBANK, CA  91502-2594",LOS ANGELES,,N,Not on the NPL,No,No,No,34.16666,-118.30635
CAN000906126,ALLOC ELECTROPLATING,"17855 E VALLEY BLVDCITY OF INDUSTRY, CA  91744",LOS ANGELES,,N,Not on the NPL,No,No,No,34.00725,-117.913585
CASFN0905512,ALLOY METALS CO INC,"1000 EAST 60TH STREETLOS ANGELES, CA  90001-1019",LOS ANGELES,,N,Not on the NPL,No,No,No,33.98569,-118.25758
CAD982029613,ALMADEN QUICKSILVER PARK,"ALMADEN & MINE HILL RDSSAN JOSE, CA  95112",SANTA CLARA,7400,N,Not on the NPL,No,No,No,37.17466,-121.824167
CAD983644956,ALMETCO,"1733 SEBASTOPOL ROADSANTA ROSA, CA  95407-6816",SONOMA,7500,N,Not on the NPL,No,No,No,38.42742,-122.73874
CAD982359168,ALPHA EMS,"1107 NORTH FAIR OAKS AVENUESUNNYVALE, CA  94089-2102",SANTA CLARA,7400,N,Not on the NPL,No,No,No,37.40089,-122.01117
CAN000908459,AMBITECH INC,"8944 FULLBRIGHT AVE.CHATSWORTH, CA  91311",LOS ANGELES,,N,Not on the NPL,No,No,No,34.23355,-118.57757
CA0001576081,AMCO CHEMICAL,"1414 THIRD STOAKLAND, CA  94607",ALAMEDA,7360,N,Currently on the Final NPL,No,No,No,37.802428,-122.294831
CAD981459175,AMERICAN LABORATORIES INCORPORATED,"5701 SOUTH COMPTON AVENUELOS ANGELES, CA  90011-4945",LOS ANGELES,,N,Not on the NPL,No,No,No,33.99072,-118.24777
CAN000905989,AMERICAN PROMOTIONAL EVENTS,"3196 NORTH LOCUST AVENUERIALTO, CA  92377-3723",SAN BERNARDINO,,N,Not on the NPL,No,No,No,34.1572,-117.40982
CAD095983417,AMETEK/SILICON DIV,"999 E ARQUES AVESUNNYVALE, CA  94085-4521",SANTA CLARA,7400,N,Not on the NPL,No,No,No,37.38063,-122.00381
CAD980358832,AMPAC FINE CHEMICALS LLC,"HWY 50 & HAZEL AVERANCHO CORDOVA, CA  95670",SACRAMENTO,6920,N,Currently on the Final NPL,No,Yes,No,38.60833,-121.2
CAD982359333,AMPEX CUPERTINO FACILITY,"10435 N TANTAU AVECUPERTINO, CA  95014",SANTA CLARA,7400,N,Not on the NPL,No,No,No,37.32899,-122.00586
CAD008286551,ANADITE INC,"10647 GARFIELD AVENUESOUTH GATE, CA  90280-7391",LOS ANGELES,4480,N,Not on the NPL,No,No,No,33.93202,-118.16738
CA0001896661,ANAHEIM HOUSE OF HORRORS,"10651 BROOKHURST ST.ANAHEIM, CA  92804",ORANGE,,N,Not on the NPL,No,No,No,33.8083,-117.958886
CAD008495418,ANCHOR PLATING CO INC,"1734 TYLER AVENUESOUTH EL MONTE, CA  91733-3430",LOS ANGELES,4480,N,Not on the NPL,No,No,No,34.048522,-118.041054
CAN000909462,"ANDERSON-DAISHI, INC.","6866 E. WASHINGTON BLVD., COMMERCE, CA,COMMERCE, CA  90040",LOS ANGELES,,N,Not on the NPL,No,No,No,33.99903,-118.12887
CA0001039585,APPLE VALLEY DRUM SITE,"25799 PAHUTE RDAPPLE VALLEY, CA  92308-9746",SAN BERNARDINO,6780,N,Not on the NPL,No,No,No,34.4792,-117.10027
CA0000444182,APPLE VALLEY LANDFILL,"3 MI E OF HWY 18 YUCCA LOMA RDAPPLE VALLEY, CA  92307",SAN BERNARDINO,6780,Y,Not on the NPL,No,No,No,34.500601,-117.112918
CAD042728840,APPLIED MATERIALS INC - BOWERS CAMPUS,"3050 BOWERS AVENUESANTA CLARA, CA  95054-3298",SANTA CLARA,7400,N,Currently on the Final NPL,No,Yes,No,37.3777,-121.9777
CAN000905639,ARABIAN AMERICAN OIL CO.,"22 BATTERY STREETSAN FRANCISCO, CA  94111-5505",SAN FRANCISCO,,N,Not on the NPL,No,No,No,37.79154,-122.39963
CAT080010630,ARAMARK UNIFORM SERVICES,"3333 NORTH SABRE AVENUEFRESNO, CA  93727-7816",FRESNO,2840,N,Not on the NPL,No,No,No,36.78057,-119.69846
CAD983650011,ARGONAUT MINE,"ARGONAUT LANEJACKSON, CA  95642",AMADOR,7500,N,Not on the NPL,No,No,No,38.35838,-120.79004
CAN000909482,ARMSTRONG WORLD INDUSTRIES,"5037 PATATA STREETCUDAHY, CA",LOS ANGELES,,N,Not on the NPL,No,No,No,33.95551,-118.18395
CAD029423472,ASSOCIATED INSECTARY,"1400 EAST SANTA PAULA STREETSANTA PAULA, CA  93060-2335",VENTURA,6000,N,Not on the NPL,No,No,No,34.35999,-119.05314
CAD982417677,ASTRO PYROTECHNICS,"2298 WEST STONEHURST DRIVERIALTO, CA  92377-8501",SAN BERNARDINO,,N,Not on the NPL,No,No,No,34.14417,-117.41682
CAN009564188,ATLANTIC FIRESTONE LLC,"8653 ATLANTIC AVESOUTH GATE, CA  90280",LOS ANGELES,,N,Not on the NPL,No,No,No,33.95261,-118.18332
CAD980496863,ATLAS ASBESTOS MINE,"LOS GATOS CREEK ROAD NORTHWEST OF FRESNOCOALINGA, CA  93210",FRESNO,2840,N,Currently on the Final NPL,No,Yes,No,36.32166,-120.5867
CAN000908450,AUCLAIR DUMP SITE,"69062 FILLMORE ST.THERMAL, CA  92274",RIVERSIDE,,N,Not on the NPL,No,No,No,33.546784,-116.130213
CA5141190566,AURORA CANYON MILLSITE,"NEAREST CITY BRIDGEPORTBRIDGEPORT, CA  93517",MONO,,Y,Not on the NPL,No,No,No,38.256667,-119.228333
CAT000623835,AUTEK SYSTS CORP,"109 BONAVENTURA DRIVESAN JOSE, CA  95134-2106",SANTA CLARA,7400,N,Not on the NPL,No,No,No,37.3903,-121.9266
CAN000909460,AUTOMOTIVE BALANCING SERVICE (ABS),"9624 ATLANTIC AVENUESOUTH GATE, CA  90280",LOS ANGELES,,N,Not on the NPL,No,No,No,33.94456,-118.18073
CAN000905755,B & G BUMPERS,"300 E. 58TH STREETLOS ANGELES, CA  90011",LOS ANGELES,,N,Not on the NPL,No,No,No,33.9898,-118.27012
CAD055765440,B C CHEMS,"1511 S UNION AVEBAKERSFIELD, CA  93307-4143",KERN,680,N,Not on the NPL,No,No,No,35.335665,-119.002872
CAN000905945,B.F. GOODRICH,"3196 NORTH LOCUST AVENUERIALTO, CA  92377-3723",SAN BERNARDINO,,N,Currently on the Final NPL,No,Yes,No,34.154247,-117.414217
CA0001709302,BAKERSFIELD CHROME & BUMPER,"231 SUMNER STBAKERSFIELD, CA  93305",KERN,,N,Not on the NPL,No,No,No,35.37846,-118.99941
CAN000905689,BALDWIN PROPERTIES,"8460 BALDWIN STOAKLAND, CA  94621",ALAMEDA,,N,Not on the NPL,No,No,No,37.74458,-122.191854
CAN000909546,BANAIRE RADIUM TRAILERS,"4972 MAIN STREET,CABAZON,, CA  92230",RIVERSIDE,,N,Not on the NPL,No,No,No,33.604453,-114.599389
CAN000909545,BANAIRE VACANT LOT RADIUM DIALS,"14993 BROADWAY STREET,CABAZON,, CA  92230",RIVERSIDE,,N,Not on the NPL,No,No,No,33.90378,-116.78285
CAD001868652,BASF CORP COATINGS & COLORANTS,"1244 NORTH LEMON STREETANAHEIM, CA  92803",ORANGE,360,N,Not on the NPL,No,No,No,33.84704,-117.91976
CAD020159166,BAUCHET STREET,"496 BAUCHET STREETLOS ANGELES, CA  90012",LOS ANGELES,4480,N,Not on the NPL,No,No,No,34.06012,-118.22966
CAD983646050,"BAUGH, MS. WILSON","805 SEBASTOPOL RD.SANTA ROSA, CA  95407",SONOMA,7500,N,Not on the NPL,No,No,No,38.429769,-122.728956
CAN000905953,BEAULIEU VINEYARD,"1960 ST. HELENA HWY.RUTHERFORD, CA  94573",NAPA,,N,Not on the NPL,No,No,No,38.463322,-122.426342
CAD048645444,"BECKMAN COULTER, INC.","167 W. POPLAR AVEPORTERVILLE, CA  93257",TULARE,8780,N,Currently on the Final NPL,No,Yes,No,36.049,-119.0201
CAD981368913,BELL FMS #6,"5300 BANDINI BOULEVARDBELL, CA  90201-6408",LOS ANGELES,4480,Y,Not on the NPL,No,No,No,33.99824,-118.17516
CA0001898576,BELMONT,"1565 OLD COUNTY RDBELMONT, CA  94002",SAN MATEO,,N,Not on the NPL,No,No,No,37.497087,-122.247395
CASFN0905462,BENHAM AND JOHNSON,"340 DANIELS LANEBAKERSFIELD, CA  93307",KERN,,N,Not on the NPL,No,No,No,35.34848,-118.99808
CASFN0905515,BENNETT SCULPTURE FOUNDRY,"4505 GREENSTONE ROADPLACERVILLE, CA  95667-8248",EL DORADO,,N,Not on the NPL,No,No,No,38.67881,-120.88746
CAD983670548,BENTLEY PRINCE STREET INC.,"14641 E. DON JULIAN RD.LA PUENTE, CA  91746-3106",LOS ANGELES,4480,N,Not on the NPL,No,No,No,34.028589,-117.97982
CAN000906085,BILL AND WAGS INC,"1516 SOUTH BON VIEWONTARIO, CA  91761-4407",SAN BERNARDINO,,N,Not on the NPL,No,No,No,34.04505,-117.63726
CAD067786749,BKK LANDFILL,"2210 SOUTH AZUSA AVENUEWEST COVINA, CA  91792-1510",LOS ANGELES,4480,N,Not on the NPL,No,No,No,34.036441,-117.902294
CAN000906063,BLUE LEDGE MINE,"SECTIONS 34, TOWNSHIP 48 N, RANGE 11 WSEIAD VALLEY, CA  96086",SISKIYOU,,N,Currently on the Final NPL,No,No,No,41.965278,-123.101667
CAN000905642,BLUE SKY SPORTS,"1736 SAN PABLO AVE.PINOLE, CA  94564",CONTRA COSTA,,N,Not on the NPL,No,No,No,38.00424,-122.29663
CA0000094508,BLYTHE SANITARY LANDFILL,"1000 MIDLAND RDBLYTHE, CA  92225",RIVERSIDE,,Y,Not on the NPL,No,No,No,33.78822,-114.71591
